{"type":"FeatureCollection","crs":{"type":"name","properties":{"name":"EPSG:32611"}},"features":[{"type":"Feature","geometry":{"type":"LineString","coordinates":[[665056.6655329627,4001631.5602481486],[665120.7780451496,4001760.087045547],[665128.7496721378,4001776.516487782],[665139.5860732301,4001799.3542231726],[665139.0439418445,4001804.8837060626],[665135.1752635993,4001810.017712036]]},"properties":{"FACNAME":"FREEWAY CHANNEL - RAILROAD CHANNEL","W_FT":10,"D_H_FT":4,"FAC_DESC":"EARTH CHNL 10'W 4'D 2:1 SS","FACTYPE":2}},{"type":"Feature","geometry":{"type":"LineString","coordinates":[[666907.8289694489,3996503.1824607137],[666909.1191805749,3996504.579542883],[666914.2788512829,3996504.6483344897],[667011.1899522557,3996507.2463858584],[667045.8424708103,3996508.180737348],[667108.4627187008,3996509.865811229],[667110.3338742021,3996511.800429826],[667109.2779659135,3996553.5311137442],[667108.3001804987,3996592.1723308614],[667106.6353752295,3996657.9638953735],[667105.2435984092,3996712.967123877],[667104.800195196,3996730.490259348],[667107.8309736176,3996738.719702262],[667107.9992375821,3996739.1766140796]]},"properties":{"FACNAME":"VAN BUSKIRK - TOMPKINS AVENUE","W_FT":0,"D_H_FT":3.5,"FAC_DESC":"42\" RCP","FACTYPE":26}},{"type":"Feature","geometry":{"type":"LineString","coordinates":[[665986.8775788283,3997675.309597838],[665986.8841738942,3997675.309994013],[665986.8841753517,3997675.30989402],[666055.1292081105,3997677.3189163115],[666057.8133217628,3997677.492459231],[666060.4321126109,3997678.1061063325],[666062.9139155599,3997679.143110968],[666064.3932429726,3997680.073590994]]},"properties":{"FACNAME":"TROPICANA WASH","W_FT":24,"D_H_FT":6,"FAC_DESC":"2: 24' X 6' RCB","FACTYPE":27}},{"type":"Feature","geometry":{"type":"LineString","coordinates":[[667228.287748516,3998527.55628991],[667239.2288985518,3998533.530470997],[667243.5319437701,3998536.022026739]]},"properties":{"FACNAME":"FLAMINGO WASH","W_FT":12,"D_H_FT":10,"FAC_DESC":"3: 12' X 10' RCB","FACTYPE":27}},{"type":"Feature","geometry":{"type":"LineString","coordinates":[[666845.725266777,3999935.629774493],[667743.3575374503,3999951.8073830097]]},"properties":{"FACNAME":"DESERT INN DRAIN EAST","W_FT":0,"D_H_FT":4,"FAC_DESC":"48\" RCP (REPLACE W/ FLDN0161)","FACTYPE":26}},{"type":"Feature","geometry":{"type":"LineString","coordinates":[[664492.7829947495,3996872.766348644],[664501.0622459183,3996877.9450339293],[664536.3626053437,3996901.5429493664],[664536.3704795309,3996901.531062654],[664561.758361917,3996918.33259622],[664564.631846781,3996920.1214905055],[664567.893671116,3996921.8423355585],[664569.3355631582,3996922.603041308],[664574.2376166449,3996924.6651308285],[664579.3008291986,3996926.292215355],[664579.5883177455,3996926.370914504],[664591.4519355206,3996929.6196984947],[664594.3208405897,3996930.4053027187]]},"properties":{"FACNAME":"TROPICANA WASH","W_FT":12,"D_H_FT":8,"FAC_DESC":"2: 12' X 8' RCB","FACTYPE":27}},{"type":"Feature","geometry":{"type":"LineString","coordinates":[[664634.1566130099,3998576.607744847],[664710.4628798463,3998638.554678193],[664818.8325877698,3998646.669995628]]},"properties":{"FACNAME":"FLAMINGO WASH","W_FT":10,"D_H_FT":10,"FAC_DESC":"4: 10' X 10' RCB (IMPERIAL PALACE FACILITY)","FACTYPE":27}},{"type":"Feature","geometry":{"type":"LineString","coordinates":[[666863.9856190429,3998473.234771732],[666912.690220911,3998473.944850653],[667077.4621146629,3998477.159016696],[667127.4536791205,3998479.3466507867]]},"properties":{"FACNAME":"FLAMINGO WASH","W_FT":12,"D_H_FT":8,"FAC_DESC":"2: 12' X 8' RCAP","FACTYPE":28}},{"type":"Feature","geometry":{"type":"LineString","coordinates":[[666967.0196953521,3998237.0117698037],[666972.2091379346,3998234.057428377],[667001.7987030514,3998286.0309424195],[666996.6093580393,3998288.9853847194]]},"properties":{"FACNAME":"TROPICANA WASH","W_FT":16.5,"D_H_FT":5,"FAC_DESC":"2: 16.5' X 5' RCB","FACTYPE":27}},{"type":"Feature","geometry":{"type":"LineString","coordinates":[[664489.8711605577,3994541.1550614745],[664487.2971392258,3994922.6198048554],[664490.803119879,3994931.499864461],[664493.845214395,3994936.5648986367],[664498.0919446675,3994942.166245947],[664503.5646885493,3994946.7472266634],[664508.0196032617,3994949.928009422],[664514.0394434539,3994952.6122265956],[664520.586093207,3994954.7853547893],[664529.0944354704,3994956.3988891267],[664547.5493126344,3994957.1878075474]]},"properties":{"FACNAME":"TROPICANA WASH - MCCARRAN AIRPORT","W_FT":10,"D_H_FT":6,"FAC_DESC":"2: 10' X 6' RCB","FACTYPE":27}},{"type":"Feature","geometry":{"type":"LineString","coordinates":[[666072.9139788204,3996702.8648568867],[666071.3902964785,3996740.6009773333]]},"properties":{"FACNAME":"TROPICANA WASH - MCCARRAN AIRPORT","W_FT":10,"D_H_FT":4,"FAC_DESC":"5: 10' X 4' RCBC @ TROPICANA AVE","FACTYPE":19}},{"type":"Feature","geometry":{"type":"LineString","coordinates":[[661272.3350271014,3994713.9861936355],[661398.0839512534,3994586.1687708786]]},"properties":{"FACNAME":"FLAMINGO - TROPICANA DIVERSION CHANNEL","W_FT":26,"D_H_FT":18,"FAC_DESC":"26' X 18' RCBC @ DECATUR BLVD","FACTYPE":19}},{"type":"Feature","geometry":{"type":"LineString","coordinates":[[668045.4921057164,3998901.0380992345],[668040.9641291914,3998801.8628904857],[668029.5113863989,3998781.5319028324],[668022.296642533,3998701.6302162176]]},"properties":{"FACNAME":"FLAMINGO WASH - ALGONQUIN","W_FT":0,"D_H_FT":6,"FAC_DESC":"72\" RCP","FACTYPE":26}},{"type":"Feature","geometry":{"type":"LineString","coordinates":[[666843.8023577349,3998157.5319179827],[666818.4452123375,3998145.0351747596],[666783.6193320267,3998124.621784175],[666783.2510765842,3998124.3821852007]]},"properties":{"FACNAME":"TROPICANA WASH - SWENSON","W_FT":8,"D_H_FT":4,"FAC_DESC":"8' X 4' RCB","FACTYPE":27}},{"type":"Feature","geometry":{"type":"LineString","coordinates":[[662055.3165420671,3998257.578978191],[662473.4498255429,3998272.82082717]]},"properties":{"FACNAME":"FLAMINGO WASH - FLAMINGO STORM DRAIN","W_FT":0,"D_H_FT":4.75,"FAC_DESC":"57\" RCP","FACTYPE":26}},{"type":"Feature","geometry":{"type":"LineString","coordinates":[[660140.8573895775,3998141.0016588084],[660522.4317818023,3998175.4619070045]]},"properties":{"FACNAME":"FLAMINGO WASH - FLAMINGO STORM DRAIN","W_FT":0,"D_H_FT":2.25,"FAC_DESC":"27\" RCP","FACTYPE":26}},{"type":"Feature","geometry":{"type":"LineString","coordinates":[[663255.8722261401,3998287.8761068843],[663344.9064847131,3998289.553452833]]},"properties":{"FACNAME":"FLAMINGO - VALLEY VIEW","W_FT":10,"D_H_FT":5,"FAC_DESC":"10' X 5' RCB","FACTYPE":27}},{"type":"Feature","geometry":{"type":"LineString","coordinates":[[666063.6739807887,3997523.2516627307],[666060.7302587519,3997648.3351466656],[666060.3854988904,3997655.4512313707],[666060.7717975506,3997660.64172503],[666061.0007940348,3997662.5445058243],[666061.3782513537,3997664.334636024],[666063.7570549338,3997677.803028367],[666064.097690569,3997679.731539617]]},"properties":{"FACNAME":"TROPICANA WASH - MCCARRAN AIRPORT","W_FT":19.75,"D_H_FT":4,"FAC_DESC":"19.75' X 4' RCB","FACTYPE":27}},{"type":"Feature","geometry":{"type":"LineString","coordinates":[[665064.1222538161,4002349.4481275165],[665080.281388905,4002372.031403541],[665130.7935985692,4002443.403285938],[665165.7165417871,4002499.436521692],[665207.96070187,4002576.7026485843],[665242.8431629355,4002653.0272665787],[665267.1420391032,4002706.7857467164],[665283.0948820214,4002739.6598372585]]},"properties":{"FACNAME":"FREEWAY CHANNEL FROM DESERT INN TO EXPRESSWAY","W_FT":18,"D_H_FT":10,"FAC_DESC":"2: 18' X 10' RCB","FACTYPE":27}},{"type":"Feature","geometry":{"type":"LineString","coordinates":[[661383.6287545366,3994159.2430808363],[661395.6234939466,3994161.8327650875],[661442.3844102225,3994173.359296554],[661479.3457447703,3994182.2614120143],[661512.6507584322,3994192.5649373806],[661532.1351381529,3994203.031097624],[661552.9341783904,3994217.787893219],[661571.2039572496,3994233.078514613],[661587.6388183008,3994255.277098536],[661614.1958293095,3994296.69379319],[661657.6308984186,3994369.5606974964],[661678.9995052807,3994397.980562068],[661713.1134437856,3994425.571069617],[661740.7164057436,3994441.5607271795],[661782.0761990123,3994462.146480032]]},"properties":{"FACNAME":"BLUE DIAMOND CHANNEL","W_FT":10,"D_H_FT":10,"FAC_DESC":"CONC CHNL 10'W 10'D 2:1 SS","FACTYPE":3}},{"type":"Feature","geometry":{"type":"LineString","coordinates":[[663738.1298720241,3996356.778335238],[663737.1956054047,3996390.6921077576],[663732.84674261,3996401.3049190803],[663727.220321755,3996416.6602859832],[663726.0701415327,3996428.7075776025],[663730.9659538699,3996435.6032454176],[663739.0224729418,3996443.03243274]]},"properties":{"FACNAME":"TROPICANA WASH","W_FT":17,"D_H_FT":7,"FAC_DESC":"CONC CHNL 17'W 7'D 0:1 SS","FACTYPE":3}},{"type":"Feature","geometry":{"type":"LineString","coordinates":[[662972.4065250545,3995246.1637862846],[663002.2478342842,3995246.501135711],[663046.4092812575,3995247.1445282088],[663063.7284503309,3995256.122085267],[663080.3784673173,3995270.946487552],[663145.8570625957,3995352.350696335],[663193.8959327939,3995412.073503257],[663193.8978991,3995412.075832176],[663221.8281427441,3995425.178173713],[663258.2710250949,3995438.958410039],[663315.8026055144,3995441.5234340564],[663343.4765634459,3995447.39518763],[663360.557327161,3995455.582496525],[663374.9153456744,3995469.0224678675],[663386.3046438916,3995485.5284576784],[663394.01601341,3995501.1207589325],[663397.0519529248,3995510.6911294414],[663397.1191448382,3995533.3168092],[663395.941199671,3995668.650403608],[663398.9135297746,3995682.5860702577],[663402.3174159785,3995694.146440819],[663407.7112000501,3995705.3388581364],[663415.8944909587,3995715.778025747],[663428.4141639026,3995728.265114771],[663441.3884226785,3995736.789553987],[663453.3464156681,3995741.589942755],[663465.1531540656,3995746.1388981882],[663472.2730632807,3995747.83032999],[663498.6220498661,3995748.740915714],[663695.4252476234,3995753.368585785],[663704.1209523026,3995755.8767749],[663713.8402658686,3995760.781465554],[663722.2136722539,3995767.254236801],[663730.8169602412,3995776.1119447607],[663734.7980442452,3995782.3508966807],[663740.4448412373,3995794.340909405],[663743.6526356726,3995809.097621764]]},"properties":{"FACNAME":"TROPICANA WASH","W_FT":15,"D_H_FT":6.5,"FAC_DESC":"15' X 6.5' RCB","FACTYPE":27}},{"type":"Feature","geometry":{"type":"LineString","coordinates":[[664653.5317856203,4001746.1097310293],[664727.1558452565,4001832.814770243],[664771.7643452218,4001888.711245169],[664798.161360276,4001928.2606332377]]},"properties":{"FACNAME":"FREEWAY CHANNEL FROM DESERT INN TO EXPRESSWAY","W_FT":10,"D_H_FT":8,"FAC_DESC":"2: 10' X 8' RCB","FACTYPE":27}},{"type":"Feature","geometry":{"type":"LineString","coordinates":[[667107.9992375821,3996739.1766140796],[667119.9779879032,3996739.431901168],[667305.2689340016,3996743.6112994696],[667505.571719635,3996748.2199102105]]},"properties":{"FACNAME":"VAN BUSKIRK - TOMPKINS AVENUE","W_FT":5,"D_H_FT":6,"FAC_DESC":"5' X 6' RCB","FACTYPE":27}},{"type":"Feature","geometry":{"type":"LineString","coordinates":[[661738.2316628504,3996025.357125564],[661918.0889193459,3996028.969335699],[662000.6003222412,3996028.4734591297]]},"properties":{"FACNAME":"TROPICANA WASH - NORTH BRANCH","W_FT":0,"D_H_FT":5,"FAC_DESC":"60\" RCP (REPLACE W/ TRNB1392)","FACTYPE":26}},{"type":"Feature","geometry":{"type":"LineString","coordinates":[[664429.184002344,3996831.0082339817],[664492.7829947495,3996872.766348644]]},"properties":{"FACNAME":"TROPICANA WASH","W_FT":10,"D_H_FT":6,"FAC_DESC":"4: 10' X 6' RCB","FACTYPE":27}},{"type":"Feature","geometry":{"type":"LineString","coordinates":[[665626.1295123622,3999079.429701909],[665643.1403029142,3998461.484115841],[665644.395059711,3998453.965755631]]},"properties":{"FACNAME":"FLAMINGO - FASHION","W_FT":12,"D_H_FT":5,"FAC_DESC":"12' X 5' RCB","FACTYPE":27}},{"type":"Feature","geometry":{"type":"LineString","coordinates":[[662966.6016223051,3996344.3863456864],[662980.09857569,3996349.92756184],[662984.0796391121,3996351.1908184956],[662997.1109989698,3996355.7670371286],[662998.1590605004,3996356.1350517687],[663012.2354234002,3996360.9872300336],[663018.7644717274,3996363.1438189414],[663023.4964438352,3996364.3371090437],[663030.6209841995,3996365.757887943],[663036.9791358649,3996366.7873536493],[663040.9731076949,3996367.1579932426],[663042.4469397357,3996367.202073513],[663077.7346244794,3996368.258371824],[663159.65360424,3996370.710495977],[663160.189503937,3996370.7286066716],[663166.1490771268,3996370.929966945],[663170.8945032366,3996371.186442545],[663175.3210822863,3996371.8759236583],[663180.204480133,3996373.4531664494],[663184.9234105822,3996375.520971096],[663188.0806916159,3996377.5657183845],[663190.861694175,3996379.6676897826],[663192.6462910525,3996381.2883854937],[663192.9586945887,3996381.572071197],[663196.4075118165,3996385.057937715],[663198.9305472267,3996387.718316733],[663202.6959956158,3996392.007592446],[663205.4670693586,3996395.8958315975],[663207.2280390166,3996399.0623668563],[663207.5310179603,3996399.773166008],[663208.7060325645,3996402.6916338815],[663218.6827517353,3996427.471349543],[663221.4771256136,3996434.3862884385],[663221.7800915805,3996435.0773851257],[663223.3406015427,3996438.6375466264],[663225.0158239136,3996441.964451932],[663225.86625919,3996443.348408235],[663226.5593092288,3996444.4761408092],[663228.9072555113,3996447.6696326756],[663231.165082372,3996450.431360114],[663234.2144404167,3996453.519959989],[663236.5669926116,3996455.5669827983],[663238.658800803,3996457.107046012],[663239.4637394381,3996457.687443927],[663243.6780505981,3996458.1397051825]]},"properties":{"FACNAME":"TROPICANA WASH - NORTH BRANCH","W_FT":20,"D_H_FT":4.5,"FAC_DESC":"20' X 4.5' RCAP","FACTYPE":28}},{"type":"Feature","geometry":{"type":"LineString","coordinates":[[665246.7744051301,3998521.267619904],[665289.9750749844,3998518.218099399]]},"properties":{"FACNAME":"FLAMINGO WASH","W_FT":50,"D_H_FT":6,"FAC_DESC":"CONC CHNL 50'W 6'D 4:1 SS","FACTYPE":3}},{"type":"Feature","geometry":{"type":"LineString","coordinates":[[662219.1247256094,3996037.293150296],[662291.2307235196,3996039.7401101724],[662313.8514952807,3996043.847968849]]},"properties":{"FACNAME":"TROPICANA WASH - NORTH BRANCH","W_FT":30,"D_H_FT":5,"FAC_DESC":"CONC CHNL 30'W 5'D 0:1 SS","FACTYPE":3}},{"type":"Feature","geometry":{"type":"LineString","coordinates":[[667743.3575374503,3999951.8073830097],[667868.0379220989,3999956.370783529],[668454.3345956955,3999975.893014836]]},"properties":{"FACNAME":"DESERT INN DRAIN EAST","W_FT":0,"D_H_FT":4.5,"FAC_DESC":"54\" RCP (REPLACE W/ FLDN0117)","FACTYPE":26}},{"type":"Feature","geometry":{"type":"LineString","coordinates":[[662118.533342466,3994516.9131756052],[662126.4378679295,3994522.1233068677],[662135.3773462772,3994528.1207034593],[662146.593255437,3994537.786580353],[662156.6369277028,3994551.1257081022],[662163.28003695,3994564.63442619],[662176.6782491977,3994597.9351210594],[662192.3810063296,3994646.039196177],[662202.2298460233,3994676.693592906],[662212.8352823112,3994706.797948324]]},"properties":{"FACNAME":"TROPICANA WASH","W_FT":10,"D_H_FT":7,"FAC_DESC":"10' X 7' RCB","FACTYPE":27}},{"type":"Feature","geometry":{"type":"LineString","coordinates":[[665057.7530556243,4001877.4796006735],[665094.9568201702,4001948.54911216],[665113.3379682603,4001988.2551252963],[665140.6411999939,4002040.2260377714],[665177.5142106684,4002112.0554568446],[665215.8371950265,4002188.456519331],[665265.2022526453,4002287.771371853],[665276.9913085527,4002311.4544396047],[665285.0628069177,4002327.528616438],[665333.0036151367,4002423.0009499267],[665361.0207707155,4002478.0160350874],[665379.1628556827,4002514.472115596],[665384.9405863105,4002525.945357311],[665393.561967478,4002538.892674453],[665406.190223642,4002553.0002997187],[665423.3978505364,4002569.178201296],[665447.3042275518,4002583.936962925]]},"properties":{"FACNAME":"FREEWAY CHANNEL BYPASS FACILITY","W_FT":10,"D_H_FT":6,"FAC_DESC":"10' X 6' RCB","FACTYPE":27}},{"type":"Feature","geometry":{"type":"LineString","coordinates":[[664594.3208405897,3996930.4053027187],[664597.4089968437,3996931.251009428],[664601.3494576251,3996932.330065213],[664606.4126720263,3996933.9570500096],[664611.3147245515,3996936.0192399407],[664612.5953378958,3996936.6947851055],[664616.0184414906,3996938.5007913457],[664620.4879941905,3996941.382779788],[664624.6893960886,3996944.6434073187],[664628.5905056475,3996948.257802487],[664632.1619204317,3996952.198433433],[664635.3761728103,3996956.4353961903],[664635.854312603,3996957.136650451],[664667.8880376403,3997004.8301544017],[664671.5693711375,3997009.8546220767],[664675.9370772989,3997014.866190702],[664680.7248590342,3997019.478131848],[664685.8963268131,3997023.655110852],[664691.4122359789,3997027.365551893],[664697.2304954826,3997030.581038063],[664703.3069547048,3997033.2772229323],[664709.5952063754,3997035.43362765],[664716.0474850354,3997037.0337540796],[664722.6146626871,3997038.0653847284],[664729.2468472477,3997038.520691521],[664877.9642484293,3997042.227302963],[664885.9227740956,3997042.7736500525],[664893.8034108853,3997044.0116479453],[664900.0199156596,3997045.5533322515],[664912.8608161219,3997050.191638333],[664916.3837726528,3997051.7548724758],[664923.3657081097,3997055.6134994663],[664929.9847438865,3997060.0660118675],[664936.1906682446,3997065.078473748],[664941.9359318857,3997070.612687434],[664947.177141977,3997076.6266153455],[664951.8741607866,3997083.074466847],[664955.9913997436,3997089.9071171833],[664959.4975121692,3997097.072603057],[664962.3434469611,3997104.4504946326],[664999.9229786195,3997216.01343242],[665000.3872881633,3997217.3410642846],[665002.4172033278,3997222.256659129],[665004.8677227481,3997226.9765593666],[665007.7202655068,3997231.4649897725],[665010.9532276234,3997235.687731248],[665014.5418747929,3997239.6126193264],[665018.4589394147,3997243.209752898],[665040.9236179908,3997262.101397681],[665119.1863062251,3997327.9164869054],[665166.9011752241,3997368.0423917905],[665169.8288336527,3997370.35524853],[665174.2348804098,3997373.333434507],[665178.8838202651,3997375.9162110547],[665183.7401347465,3997378.0839580554],[665188.766960301,3997379.8201361788],[665193.9258825006,3997381.1116839214],[665199.1778403216,3997381.948730754],[665204.4827232725,3997382.3247912675],[665237.9812636527,3997383.2341135056],[665255.1503213265,3997383.700194104]]},"properties":{"FACNAME":"TROPICANA WASH","W_FT":12,"D_H_FT":7,"FAC_DESC":"2: 12' X 7' RCB","FACTYPE":27}},{"type":"Feature","geometry":{"type":"LineString","coordinates":[[666432.5250425136,3998390.4088120367],[666452.7654727045,3998394.2354537025]]},"properties":{"FACNAME":"FLAMINGO WASH","W_FT":12,"D_H_FT":8,"FAC_DESC":"5: 12' X 8' RCB","FACTYPE":27}},{"type":"Feature","geometry":{"type":"LineString","coordinates":[[661294.0504868018,3996784.949137139],[661295.8531799557,3996784.9910111898],[661309.0742199256,3996785.2965062135],[661309.0818177119,3996785.2967169527],[661324.1898358742,3996785.6458144705],[661327.2200550894,3996785.8463942898]]},"properties":{"FACNAME":"FLAMINGO WASH","W_FT":12,"D_H_FT":10,"FAC_DESC":"3: 12' X 10' RCBC @ DECATUR","FACTYPE":19}},{"type":"Feature","geometry":{"type":"LineString","coordinates":[[663355.4180802046,3993977.6194311003],[663357.9284981758,3994064.9803047995],[663357.9118922628,3994066.120398857],[663357.8963888442,3994067.1847999524],[663358.5828543687,3994070.502392874],[663359.9992977836,3994074.198262069],[663362.1777270515,3994076.068010923],[663364.7232222214,3994077.943106267]]},"properties":{"FACNAME":"WAGON TRAIL CHANNEL","W_FT":20,"D_H_FT":6,"FAC_DESC":"RIPRAP CHNL 20'W 6'D 2:1 SS","FACTYPE":4}},{"type":"Feature","geometry":{"type":"LineString","coordinates":[[664057.3879901273,4002304.2985370154],[664100.1821423266,4002304.652026225],[664350.647872175,4002304.4789789724]]},"properties":{"FACNAME":"OAKEY DRAIN","W_FT":8,"D_H_FT":8,"FAC_DESC":"8' X 8' RCB","FACTYPE":27}},{"type":"Feature","geometry":{"type":"LineString","coordinates":[[665010.4511768696,4002276.1956546456],[665013.960163031,4002281.2507788762],[665048.1596121509,4002326.030716467],[665064.1222538161,4002349.4481275165]]},"properties":{"FACNAME":"FREEWAY CHANNEL FROM DESERT INN TO EXPRESSWAY","W_FT":10,"D_H_FT":8,"FAC_DESC":"2: 10' X 8' RCB","FACTYPE":27}},{"type":"Feature","geometry":{"type":"LineString","coordinates":[[660146.4160151562,3997514.967201853],[660280.8905690671,3997526.78651046],[660295.45203448,3997527.7492440823],[660308.5129314892,3997528.5338880047],[660324.5879211782,3997529.4995811763],[660339.2146981417,3997530.112228482]]},"properties":{"FACNAME":"FLAMINGO WASH - LATERAL (FLAMINGO/RAINBOW)","W_FT":14,"D_H_FT":8,"FAC_DESC":"2: 14' X 8' RCB","FACTYPE":27}},{"type":"Feature","geometry":{"type":"LineString","coordinates":[[661664.6903381273,3996865.62049246],[661683.54657345,3996870.2672049995]]},"properties":{"FACNAME":"FLAMINGO WASH","W_FT":10,"D_H_FT":5,"FAC_DESC":"7: 10' X 5' RCB","FACTYPE":27}},{"type":"Feature","geometry":{"type":"LineString","coordinates":[[661344.9328836408,3994150.715251106],[661383.6287545366,3994159.2430808363]]},"properties":{"FACNAME":"BLUE DIAMOND CHANNEL","W_FT":23,"D_H_FT":10,"FAC_DESC":"23' X 10' RCBC @ DECATUR","FACTYPE":19}},{"type":"Feature","geometry":{"type":"LineString","coordinates":[[660540.3518225747,3995345.140057948],[660576.9189483135,3995345.9509489266]]},"properties":{"FACNAME":"FLAMINGO - TROPICANA DIVERSION CHANNEL","W_FT":19.5,"D_H_FT":18,"FAC_DESC":"19.5' X 18' RCBC @ LINDELL","FACTYPE":19}},{"type":"Feature","geometry":{"type":"LineString","coordinates":[[662495.5186876168,3997725.4851928577],[662495.5224406108,3997725.48844794],[662502.8633579778,3997731.7894780827],[662526.4807458438,3997753.248310768],[662559.9289646682,3997776.258915583],[662596.2610300855,3997796.51093592],[662675.8170264005,3997841.2927442454],[662693.948660532,3997852.8182738884],[662721.0649953717,3997868.3473320855],[662721.1583544107,3997868.41950132],[662728.8021504508,3997872.7967280974],[662760.9692613703,3997896.80010353],[662784.5456210005,3997921.0739986035],[662827.4970577519,3997968.1527890586],[662878.2361830268,3998021.263916982]]},"properties":{"FACNAME":"FLAMINGO WASH","W_FT":60,"D_H_FT":14,"FAC_DESC":"EARTH CHNL 60'W 14'D 1:1 SS (REPLACE W/ FLWA0925)","FACTYPE":2}},{"type":"Feature","geometry":{"type":"LineString","coordinates":[[665918.3292964565,3997614.4199570925],[665931.8538214439,3997621.5485815806],[665951.96236651,3997660.8504684065]]},"properties":{"FACNAME":"TROPICANA WASH","W_FT":24,"D_H_FT":6,"FAC_DESC":"2: 24' X 6' RCB","FACTYPE":27}},{"type":"Feature","geometry":{"type":"LineString","coordinates":[[666064.097690569,3997679.731539617],[666064.3932429726,3997680.073590994],[666065.1907343122,3997680.5751784896],[666067.2003353266,3997682.3628968187],[666068.8877214725,3997684.4575581416],[666070.206724615,3997686.801682218],[666081.8070951828,3997700.730538259],[666205.3579391381,3997883.38091959],[666215.7393782169,3997898.728004054]]},"properties":{"FACNAME":"TROPICANA WASH","W_FT":20,"D_H_FT":6,"FAC_DESC":"3: 20' X 6' RCB","FACTYPE":27}},{"type":"Feature","geometry":{"type":"LineString","coordinates":[[664658.596310336,3995225.302129459],[664713.2523342601,3995227.788624842],[664723.2310700465,3995229.044642869],[664728.4533139861,3995232.731072142],[664729.466740078,3995239.410360245],[664727.8359542664,3995447.411602765]]},"properties":{"FACNAME":"TROPICANA WASH - MCCARRAN AIRPORT","W_FT":12,"D_H_FT":5,"FAC_DESC":"CONC CHNL 12'W 5'D 1.5:1 SS","FACTYPE":3}},{"type":"Feature","geometry":{"type":"LineString","coordinates":[[668022.296642533,3998701.6302162176],[668039.9175212824,3998713.8597343145],[668077.2346526277,3998735.4107395513],[668094.4758710759,3998744.7051328416]]},"properties":{"FACNAME":"FLAMINGO WASH","W_FT":50,"D_H_FT":20,"FAC_DESC":"CONC CHNL 50'W 20'D 1:1 SS WITH DROP STRUCTURES","FACTYPE":3}},{"type":"Feature","geometry":{"type":"LineString","coordinates":[[665135.1752635993,4001810.017712036],[665059.3225106902,4001848.842622252],[665055.6821701556,4001855.655466906],[665054.7860312609,4001860.8533425755],[665057.7530556243,4001877.4796006735]]},"properties":{"FACNAME":"FREEWAY CHANNEL - RAILROAD CHANNEL","W_FT":5,"D_H_FT":4,"FAC_DESC":"5' X 4' RCB","FACTYPE":27}},{"type":"Feature","geometry":{"type":"LineString","coordinates":[[659072.7893227757,4002232.235885707],[659226.639432822,4002237.015784147],[659596.7962565952,4002248.435602547],[659637.0733337053,4002249.351423317],[659816.4937998564,4002253.4312185105],[659807.9767786488,4002456.134116157],[660406.8271839439,4002471.1940794205],[660401.7677412234,4002675.346657335],[660554.4650918263,4002676.944411185],[660600.4113542656,4002689.1867608344],[660742.4375035951,4002690.9907424366],[660790.0156021285,4002678.9694076367],[661192.9217128204,4002684.598563485],[661230.2200774574,4002694.2169617037]]},"properties":{"FACNAME":"EXTENSION OF MEADOWS / CHARLESTON","W_FT":0,"D_H_FT":2.5,"FAC_DESC":"30\" RCP","FACTYPE":26}},{"type":"Feature","geometry":{"type":"LineString","coordinates":[[661230.2200774574,4002694.2169617037],[661239.8811012313,4002715.022171561],[661251.3214607268,4002734.9065409927],[661264.4555245826,4002753.7208039253],[661326.5661997723,4002834.903144245],[661330.9881963169,4002840.173663019],[661335.8636846041,4002845.0233513634],[661341.161551505,4002849.411750724],[661346.834227147,4002853.302162837],[661352.8300669602,4002856.669831317],[661355.4684240165,4002857.851462247]]},"properties":{"FACNAME":"OAKEY MEADOWS STORMDRAIN","W_FT":12,"D_H_FT":8,"FAC_DESC":"12' X 8' RCB","FACTYPE":27}},{"type":"Feature","geometry":{"type":"LineString","coordinates":[[661085.3172658684,3994875.845478816],[661171.5878259931,3994810.9980334425],[661226.2752358112,3994756.1537425797]]},"properties":{"FACNAME":"FLAMINGO - TROPICANA DIVERSION CHANNEL","W_FT":13,"D_H_FT":18,"FAC_DESC":"CONC CHNL 13'W 18'D 2:1 SS","FACTYPE":3}},{"type":"Feature","geometry":{"type":"LineString","coordinates":[[662066.941875304,3994484.4397004824],[662118.533342466,3994516.9131756052]]},"properties":{"FACNAME":"TROPICANA WASH","W_FT":10,"D_H_FT":8.5,"FAC_DESC":"10' X 8.5' RCB OUTLET","FACTYPE":29}},{"type":"Feature","geometry":{"type":"LineString","coordinates":[[666707.1179615785,3998149.540712872],[666786.5260309307,3998154.291713427]]},"properties":{"FACNAME":"TROPICANA WASH","W_FT":80,"D_H_FT":8.5,"FAC_DESC":"CONC CHNL 80'W 8.5'D 0:1 SS","FACTYPE":3}},{"type":"Feature","geometry":{"type":"LineString","coordinates":[[662326.9574000774,3996046.3336090418],[662344.2091769181,3996049.437626241]]},"properties":{"FACNAME":"TROPICANA WASH - NORTH BRANCH","W_FT":14,"D_H_FT":5,"FAC_DESC":"2: 14' X 5' RCB","FACTYPE":27}},{"type":"Feature","geometry":{"type":"LineString","coordinates":[[667710.6678882099,3996752.792869785],[668113.7893042741,3996760.8043131405],[668515.9788739326,3996768.797290478]]},"properties":{"FACNAME":"VAN BUSKIRK - TOMPKINS AVENUE","W_FT":10,"D_H_FT":5,"FAC_DESC":"10' X 5' RCB","FACTYPE":27}},{"type":"Feature","geometry":{"type":"LineString","coordinates":[[665951.96236651,3997660.8504684065],[665955.5449984117,3997664.6120643453],[665959.5755465215,3997667.889326946],[665963.9887714958,3997670.6294986275],[665968.7136091096,3997672.788337979],[665973.673955635,3997674.3311313433],[665978.7897648169,3997675.232908845],[665986.8775788283,3997675.309597838]]},"properties":{"FACNAME":"TROPICANA WASH","W_FT":24,"D_H_FT":6,"FAC_DESC":"2: 24' X 6' RCB","FACTYPE":27}},{"type":"Feature","geometry":{"type":"LineString","coordinates":[[661306.6842280704,3996015.813857365],[661345.1725080316,3996017.1360751623]]},"properties":{"FACNAME":"TROPICANA WASH - NORTH BRANCH","W_FT":4,"D_H_FT":8,"FAC_DESC":"3: 8' X 4' RCBC @ DECATUR","FACTYPE":19}},{"type":"Feature","geometry":{"type":"LineString","coordinates":[[661244.442906001,3996792.9704456907],[661262.9785897215,3996792.957051634],[661265.1731583215,3996792.8595205415],[661267.0614225925,3996792.70501947],[661268.7516418077,3996792.4354194505],[661271.4632507236,3996791.9822827256],[661273.2656010466,3996791.622206507],[661276.0122049236,3996790.8677457524],[661278.5720425589,3996790.013452116],[661281.4095255225,3996788.9248779737],[661284.9930683614,3996787.4262293587],[661288.0238081154,3996786.0470385854],[661289.8965000387,3996785.3758522584],[661290.8926707779,3996785.2071496984],[661291.4230389218,3996785.117368239],[661291.542464021,3996785.109707671],[661291.8343686988,3996785.0910592787],[661294.0504868018,3996784.949137139]]},"properties":{"FACNAME":"FLAMINGO WASH","W_FT":12,"D_H_FT":8,"FAC_DESC":"2: 72\" RCP OUTLET","FACTYPE":29}},{"type":"Feature","geometry":{"type":"LineString","coordinates":[[667577.6888231463,3998601.5439130273],[667589.8746370665,3998601.146202353]]},"properties":{"FACNAME":"FLAMINGO WASH","W_FT":12,"D_H_FT":12,"FAC_DESC":"4: 12' X 12' RCBC @ MARYLAND","FACTYPE":19}},{"type":"Feature","geometry":{"type":"LineString","coordinates":[[662125.8350344083,3996035.1388811967],[662219.1247256094,3996037.293150296]]},"properties":{"FACNAME":"TROPICANA WASH - NORTH BRANCH","W_FT":26.5,"D_H_FT":7,"FAC_DESC":"CONC CHNL 26.5'W 7'D 0:1 SS","FACTYPE":3}},{"type":"Feature","geometry":{"type":"LineString","coordinates":[[661683.54657345,3996870.2672049995],[661709.7397627353,3996879.5928700473],[661718.6696248468,3996882.3691178127],[661723.7828408497,3996883.7667900226],[661726.9182014032,3996886.5114936214],[661729.3128332538,3996889.2455017273],[661731.3798716424,3996892.662713996],[661732.3710787613,3996897.2813858367],[661732.8988996855,3996934.367212292],[661733.90872267,3996937.022331357],[661736.0089128824,3996939.9901757883],[661738.3824462335,3996942.353334559],[661740.479658374,3996943.7070513205],[661744.33618812,3996945.986011883],[661745.7828637948,3996946.589162838],[661747.3134571598,3996946.8761005886],[661750.432165647,3996947.1332781655],[661780.5509076465,3996948.85568839],[661794.9310145751,3996953.510778811],[661865.3036486927,3997045.2990232804],[661930.9775291013,3997133.121376512],[662018.4512891712,3997250.4159612916],[662067.4515833263,3997309.985142609]]},"properties":{"FACNAME":"FLAMINGO WASH","W_FT":10,"D_H_FT":8,"FAC_DESC":"3: 10' X 8' RCB","FACTYPE":27}},{"type":"Feature","geometry":{"type":"LineString","coordinates":[[667208.3445492822,3998513.0186558845],[667228.287748516,3998527.55628991]]},"properties":{"FACNAME":"FLAMINGO WASH","W_FT":12,"D_H_FT":10,"FAC_DESC":"3: 12' X 10' RCB","FACTYPE":27}},{"type":"Feature","geometry":{"type":"LineString","coordinates":[[661979.865782243,3994569.3531913627],[662036.7046056221,3994567.1913160076],[662060.4108557168,3994561.257920825],[662075.808280048,3994551.01770866],[662090.3481815216,3994538.0740939947]]},"properties":{"FACNAME":"TROPICANA WASH","W_FT":0,"D_H_FT":0,"FAC_DESC":"13,000 CFS PMF SPILLWAY","FACTYPE":10}},{"type":"Feature","geometry":{"type":"LineString","coordinates":[[664446.0391902801,3998537.9441611767],[664492.3389249711,3998566.3953006524],[664562.3215424086,3998572.4656380815],[664634.1566130099,3998576.607744847]]},"properties":{"FACNAME":"FLAMINGO WASH","W_FT":10,"D_H_FT":10,"FAC_DESC":"4: 10' X 10' RCB","FACTYPE":27}},{"type":"Feature","geometry":{"type":"LineString","coordinates":[[662067.4515833263,3997309.985142609],[662093.266606149,3997336.584235751]]},"properties":{"FACNAME":"FLAMINGO WASH","W_FT":12,"D_H_FT":5,"FAC_DESC":"7: 12' X 5' RCB","FACTYPE":27}},{"type":"Feature","geometry":{"type":"LineString","coordinates":[[662212.8352823112,3994706.797948324],[662218.4251096514,3994708.5636722962],[662225.7508653554,3994706.7986729885],[662228.8975338677,3994706.3040492204]]},"properties":{"FACNAME":"TROPICANA WASH","W_FT":10,"D_H_FT":6,"FAC_DESC":"CONC CHNL 10'W 6'D 0:1 SS","FACTYPE":3}},{"type":"Feature","geometry":{"type":"LineString","coordinates":[[663852.7921337197,3994176.279362545],[663859.7943038985,3994179.2439001147],[663904.2342819343,3994206.722046434],[663908.9683251183,3994209.7314573675],[663938.8058997274,3994230.380513663],[663942.4376421585,3994233.3739692536],[664010.7247979443,3994263.771600389],[664079.0896724416,3994288.8413291587],[664083.1157497551,3994290.0025073527],[664087.5148390669,3994290.8020743155],[664153.9909336721,3994294.1588630723],[664159.146167778,3994293.4992653923],[664163.1935592681,3994293.190375385],[664202.4474734364,3994298.172890005],[664238.8191813573,3994324.4305234295],[664285.9629273912,3994368.1194812823],[664291.7811447777,3994372.4308477677],[664295.7697573006,3994376.164196333],[664369.3884935516,3994469.4899461647],[664374.8390455308,3994473.7958599534],[664424.4389730552,3994500.246220076],[664429.5466439002,3994502.8933377247],[664433.1782908008,3994505.886699617],[664433.5452579302,3994505.8920451496],[664480.5843246173,3994531.570221155],[664485.7723358161,3994536.069037254],[664489.8711605577,3994541.1550614745]]},"properties":{"FACNAME":"WAGON TRAIL CHANNEL","W_FT":20,"D_H_FT":10,"FAC_DESC":"GRASS CHNL 20'W 10'D 4:1 SS","FACTYPE":6}},{"type":"Feature","geometry":{"type":"LineString","coordinates":[[662099.7035636541,3996032.109099306],[662125.8350344083,3996035.1388811967]]},"properties":{"FACNAME":"TROPICANA WASH - NORTH BRANCH","W_FT":10,"D_H_FT":6,"FAC_DESC":"3: 10' X 6' RCB","FACTYPE":27}},{"type":"Feature","geometry":{"type":"LineString","coordinates":[[666786.5260309307,3998154.291713427],[666820.0325934885,3998155.5127773453]]},"properties":{"FACNAME":"TROPICANA WASH","W_FT":12,"D_H_FT":4,"FAC_DESC":"6: 12' X 4' RCB","FACTYPE":27}},{"type":"Feature","geometry":{"type":"LineString","coordinates":[[667722.9082740821,3996346.923254373],[667710.6678882099,3996752.792869785]]},"properties":{"FACNAME":"VAN BUSKIRK - TOMPKINS AVENUE","W_FT":0,"D_H_FT":4.5,"FAC_DESC":"54\" RCP","FACTYPE":26}},{"type":"Feature","geometry":{"type":"LineString","coordinates":[[666452.7654727045,3998394.2354537025],[666457.2208584273,3998396.052635144]]},"properties":{"FACNAME":"FLAMINGO WASH","W_FT":12,"D_H_FT":8,"FAC_DESC":"5: 12' X 8' RCB","FACTYPE":27}},{"type":"Feature","geometry":{"type":"LineString","coordinates":[[665644.395059711,3998453.965755631],[665678.3443692625,3998462.4918270987],[665710.6109675395,3998466.113149133],[665739.5004991242,3998468.8798345597],[665785.7111285373,3998465.7746718945],[666079.7041508004,3998446.466856887]]},"properties":{"FACNAME":"FLAMINGO WASH","W_FT":15,"D_H_FT":10,"FAC_DESC":"2: 15' X 10' RCB","FACTYPE":27}},{"type":"Feature","geometry":{"type":"LineString","coordinates":[[664727.8359542664,3995447.411602765],[664727.6856343932,3995459.6028191806]]},"properties":{"FACNAME":"TROPICANA WASH - MCCARRAN AIRPORT","W_FT":40,"D_H_FT":7,"FAC_DESC":"SINGLE SPAN BRIDGE 40'W 7'D @ FOUR SEASONS","FACTYPE":24}},{"type":"Feature","geometry":{"type":"LineString","coordinates":[[665447.3042275518,4002583.936962925],[665468.5061362825,4002596.3810755904],[665496.3071134298,4002614.2304552845],[665505.2291884787,4002626.495380482],[665513.3487698014,4002641.78227909],[665523.5218563094,4002672.2675596084],[665532.1451777867,4002705.0054144235],[665551.0408415708,4002792.184832988]]},"properties":{"FACNAME":"FREEWAY CHANNEL BYPASS FACILITY","W_FT":10,"D_H_FT":8,"FAC_DESC":"10' X 8' RCB","FACTYPE":27}},{"type":"Feature","geometry":{"type":"LineString","coordinates":[[661630.3508271965,3998250.6038099527],[662055.3165420671,3998257.578978191]]},"properties":{"FACNAME":"FLAMINGO WASH - FLAMINGO STORM DRAIN","W_FT":0,"D_H_FT":4.25,"FAC_DESC":"51\" RCP","FACTYPE":26}},{"type":"Feature","geometry":{"type":"LineString","coordinates":[[667505.571719635,3996748.2199102105],[667583.0626567773,3996749.903027704]]},"properties":{"FACNAME":"VAN BUSKIRK - TOMPKINS AVENUE","W_FT":0,"D_H_FT":6,"FAC_DESC":"72\" RCP","FACTYPE":26}},{"type":"Feature","geometry":{"type":"LineString","coordinates":[[662473.4498255429,3998272.82082717],[662891.4430416021,3998281.0104374927]]},"properties":{"FACNAME":"FLAMINGO WASH - FLAMINGO STORM DRAIN","W_FT":0,"D_H_FT":4.5,"FAC_DESC":"54\" RCP","FACTYPE":26}},{"type":"Feature","geometry":{"type":"LineString","coordinates":[[662093.266606149,3997336.584235751],[662207.3451502162,3997445.320193618]]},"properties":{"FACNAME":"FLAMINGO WASH","W_FT":60,"D_H_FT":14,"FAC_DESC":"EARTH CHNL 60'W 14'D 1:1 SS (REPLACE W/ FLWA0941)","FACTYPE":2}},{"type":"Feature","geometry":{"type":"LineString","coordinates":[[666881.6321657484,3996296.330677789],[666902.7653755026,3996317.6232772837],[666900.5578542068,3996404.8893929045],[666898.3314885765,3996492.8979297853],[666907.8289694489,3996503.1824607137]]},"properties":{"FACNAME":"VAN BUSKIRK - TOMPKINS AVENUE","W_FT":0,"D_H_FT":3,"FAC_DESC":"36\" RCP OUTLET WITH 18\" ORIFICE","FACTYPE":29}},{"type":"Feature","geometry":{"type":"LineString","coordinates":[[662228.8975338677,3994706.3040492204],[662256.1464233834,3994703.1365817976]]},"properties":{"FACNAME":"TROPICANA WASH","W_FT":10,"D_H_FT":7,"FAC_DESC":"10' X 7' RCBC @ UPRR","FACTYPE":19}},{"type":"Feature","geometry":{"type":"LineString","coordinates":[[661219.5410041593,4001479.9860469676],[661211.6225500025,4001868.284903968]]},"properties":{"FACNAME":"OAKEY MEADOWS STORMDRAIN","W_FT":12,"D_H_FT":5,"FAC_DESC":"12' X 5' RCB","FACTYPE":27}},{"type":"Feature","geometry":{"type":"LineString","coordinates":[[665714.5888358823,3997520.563201141],[665729.9200707251,3997528.3582334444],[665765.4150273447,3997534.75606509],[665805.9228592317,3997542.5649374924],[665826.1979651331,3997548.2371578906],[665840.1132917814,3997555.149345768],[665864.9510449482,3997575.685456746],[665897.0095731168,3997602.1458654865],[665918.3292964565,3997614.4199570925]]},"properties":{"FACNAME":"TROPICANA WASH","W_FT":30,"D_H_FT":5,"FAC_DESC":"GRASS CHNL 30'W 5'D 4:1 SS","FACTYPE":6}},{"type":"Feature","geometry":{"type":"LineString","coordinates":[[665538.5055909702,4002911.110455574],[665536.5676202509,4002981.358652516],[665530.393867717,4003077.4316030755],[665526.1868626892,4003161.091881581]]},"properties":{"FACNAME":"FREEWAY CHANNEL FROM DESERT INN TO EXPRESSWAY","W_FT":12,"D_H_FT":10,"FAC_DESC":"3: 12' X 10' RCB","FACTYPE":27}},{"type":"Feature","geometry":{"type":"LineString","coordinates":[[663663.3387669934,3994068.8449561787],[663727.4574485845,3994105.0946215503],[663734.4833966352,3994109.2211425914]]},"properties":{"FACNAME":"WAGON TRAIL CHANNEL","W_FT":9,"D_H_FT":4.25,"FAC_DESC":"CONC CHNL 9'W 4.25'D 2:1 SS","FACTYPE":3}},{"type":"Feature","geometry":{"type":"LineString","coordinates":[[665551.0408415708,4002792.184832988],[665557.1730059453,4002813.212165131],[665558.9575416183,4002830.2492568847],[665553.9210821133,4002859.028506495],[665538.5055909702,4002911.110455574]]},"properties":{"FACNAME":"FREEWAY CHANNEL BYPASS FACILITY","W_FT":10,"D_H_FT":9,"FAC_DESC":"10' X 9' RCB","FACTYPE":27}},{"type":"Feature","geometry":{"type":"LineString","coordinates":[[660753.8740483801,3995221.9977237084],[660757.9609436395,3995217.018005958],[660936.234926905,3995000.6913392083]]},"properties":{"FACNAME":"FLAMINGO - TROPICANA DIVERSION CHANNEL","W_FT":13,"D_H_FT":16.5,"FAC_DESC":"CONC CHNL 13'W 16.5'D 2:1 SS","FACTYPE":3}},{"type":"Feature","geometry":{"type":"LineString","coordinates":[[660576.9189483135,3995345.9509489266],[660626.9952638133,3995343.797010739],[660656.9742424979,3995331.2789508966],[660688.9634165446,3995299.356921571],[660716.6346192663,3995267.372576787],[660753.8740483801,3995221.9977237084]]},"properties":{"FACNAME":"FLAMINGO - TROPICANA DIVERSION CHANNEL","W_FT":19.5,"D_H_FT":18,"FAC_DESC":"CONC CHNL 19.5'W 18'D 0:1 SS","FACTYPE":3}},{"type":"Feature","geometry":{"type":"LineString","coordinates":[[662435.8542544586,3996115.8530164883],[662468.495641462,3996141.6532107005],[662492.0139322912,3996215.36806849]]},"properties":{"FACNAME":"TROPICANA WASH - NORTH BRANCH","W_FT":10,"D_H_FT":5,"FAC_DESC":"10' X 5' RCB OUTLET","FACTYPE":29}},{"type":"Feature","geometry":{"type":"LineString","coordinates":[[663660.0093082936,3998340.4846096155],[663822.1402704754,3998380.2854131875],[664143.2610005549,3998532.083343551],[664416.7247014417,3998537.1821305724]]},"properties":{"FACNAME":"FLAMINGO WASH","W_FT":16,"D_H_FT":10,"FAC_DESC":"2: 16' X 10' RCB","FACTYPE":27}},{"type":"Feature","geometry":{"type":"LineString","coordinates":[[663494.5751017447,3998303.374816845],[663525.8771783949,3998307.5577076194],[663660.0093082936,3998340.4846096155]]},"properties":{"FACNAME":"FLAMINGO WASH","W_FT":10,"D_H_FT":8,"FAC_DESC":"6: 10' X 8' RCB","FACTYPE":27}},{"type":"Feature","geometry":{"type":"LineString","coordinates":[[664719.602180864,3995872.0610124827],[664713.3133789892,3996075.259689215],[664719.037406458,3996079.994072794],[664890.9784955264,3996079.760715028],[664936.5954380946,3996060.949413984],[665311.1008704605,3996068.2324224524],[665323.8793602411,3996068.4186269506],[665322.8602138617,3996242.7762506916],[665305.7782105373,3996517.019448604],[665302.1071592579,3996601.8697963697],[665304.7373343704,3996630.2094760505],[665315.6974771372,3996650.7583610835],[665331.3987851152,3996659.2036158848],[665354.7684085238,3996663.500291527],[665376.6212998794,3996667.4705253006],[665402.7823972086,3996668.156124909],[665826.1529585727,3996684.368539773],[665976.9956737561,3996688.1967784516],[666045.7628276037,3996690.1678923247],[666047.1300098726,3996690.517359296],[666055.1829482566,3996692.5754682096],[666072.9139788204,3996702.8648568867]]},"properties":{"FACNAME":"TROPICANA WASH - MCCARRAN AIRPORT","W_FT":8,"D_H_FT":6,"FAC_DESC":"2: 8' X 6' RCB","FACTYPE":27}},{"type":"Feature","geometry":{"type":"LineString","coordinates":[[666967.0196953521,3998237.0117698037],[666996.6093580393,3998288.9853847194]]},"properties":{"FACNAME":"TROPICANA WASH","W_FT":12,"D_H_FT":5,"FAC_DESC":"3: 12' X 5' RCB","FACTYPE":27}},{"type":"Feature","geometry":{"type":"LineString","coordinates":[[664515.5239722497,3993797.0802911418],[664489.8711605577,3994541.1550614745]]},"properties":{"FACNAME":"TROPICANA WASH - MCCARRAN AIRPORT","W_FT":30,"D_H_FT":2,"FAC_DESC":"RIPRAP CHNL 30'W 2'D 4:1 SS","FACTYPE":4}},{"type":"Feature","geometry":{"type":"LineString","coordinates":[[664547.5493126344,3994957.1878075474],[664618.7604813799,3994960.826047306],[664626.8097974107,3994961.7237076894],[664633.5404878857,3994963.9026183514],[664636.8566896052,3994968.3722744854],[664639.1095506491,3994974.3872320764],[664637.2243188244,3995046.840701164],[664633.1045156071,3995075.8928697393],[664631.1525713877,3995209.874048053],[664633.1606816268,3995216.624632614],[664636.7190988172,3995220.1477031573],[664641.6743877642,3995223.1353563475],[664646.9325403502,3995224.617835954]]},"properties":{"FACNAME":"TROPICANA WASH - MCCARRAN AIRPORT","W_FT":12,"D_H_FT":5,"FAC_DESC":"CONC CHNL 12'W 5'D 1.5:1 SS","FACTYPE":3}},{"type":"Feature","geometry":{"type":"MultiLineString","coordinates":[[[666783.2510765842,3998124.3821852007],[666781.2144275468,3998123.0570259974],[666778.9673391386,3998121.2730396963],[666771.7433495435,3998115.3421693267],[666764.1692974897,3998109.8652556594],[666756.2737847402,3998104.863018275],[666748.086440649,3998100.3542914903],[666739.6380221914,3998096.3560257987],[666730.9604139292,3998092.8832878857],[666565.4199384188,3998032.4563155747],[666555.4318545464,3998028.3874026258],[666545.7702681511,3998023.5943552875],[666536.4878088839,3998018.103044092],[666527.6347482816,3998011.94330569],[666519.2591041181,3998005.148644346],[666511.4064477206,3997997.7557290653],[666504.119196741,3997989.804883346],[666497.4371282305,3997981.3391925273],[666491.3963787302,3997972.4044892457],[666486.0297442409,3997963.049357769],[666481.3662875603,3997953.324628241],[666477.4314455512,3997943.282878162],[666474.2464248213,3997932.9787236312],[666471.828611907,3997922.46812523],[666470.1910776793,3997911.808080762],[666469.3426817032,3997901.05632674],[666469.2880722596,3997890.271338382],[666475.4349264909,3997696.91916657],[666482.1687391722,3997485.096157808]],[[666482.1687479179,3997485.0955578596],[666482.9565630318,3997470.4798523244],[666484.3887465893,3997455.9131442104],[666486.4623834303,3997441.4238946247],[666489.1733628748,3997427.0402472024],[666492.5165757993,3997412.7902310183],[666496.4854161253,3997398.7016533054],[666501.0721822404,3997384.802005299],[666506.2679784797,3997371.118360775],[666513.690863106,3997352.6452542446],[666520.4483557402,3997333.918616788],[666526.5319086451,3997314.962226999],[666531.9336667521,3997295.8003736595],[666536.6466705524,3997276.457658633],[666540.6649590018,3997256.9587983596],[666551.0270674445,3997201.6962637235],[666556.9145761179,3997170.094276836],[666556.4574213093,3997169.208800037]]]},"properties":{"FACNAME":"TROPICANA WASH - SWENSON","W_FT":6,"D_H_FT":4,"FAC_DESC":"6' X 4' RCB","FACTYPE":27}},{"type":"Feature","geometry":{"type":"LineString","coordinates":[[664818.8325877698,3998646.669995628],[664835.7709130626,3998647.0386683308],[664849.3665176312,3998633.4209760367],[664867.6332398839,3998615.2664147536],[664892.859686238,3998579.210686355],[664926.0853700624,3998545.936908289],[664944.8842644999,3998532.261352312],[664975.9499013361,3998525.1907362207],[665050.8721226592,3998522.015327837],[665219.3461054246,3998521.752241847]]},"properties":{"FACNAME":"FLAMINGO WASH","W_FT":11,"D_H_FT":7,"FAC_DESC":"2: 11' X 7' RCB","FACTYPE":27}},{"type":"Feature","geometry":{"type":"LineString","coordinates":[[659809.76914552,3995279.9114397303],[659980.666496143,3995295.910439196],[660174.8476689341,3995312.98796387],[660356.924595977,3995329.1136722853],[660540.3518225747,3995345.140057948]]},"properties":{"FACNAME":"FLAMINGO - TROPICANA DIVERSION CHANNEL","W_FT":13,"D_H_FT":11.5,"FAC_DESC":"CONC CHNL 13'W 11.5'D 2:1 SS","FACTYPE":3}},{"type":"Feature","geometry":{"type":"LineString","coordinates":[[659848.9154076085,3997633.3601681977],[659851.8620649143,3997631.4433080843],[659881.5556923781,3997606.1457499573],[659926.2024388519,3997557.8704322604],[659942.0825378493,3997543.882161781],[659958.9944267067,3997531.33628457],[659979.233580756,3997520.299663694],[659989.2838565807,3997516.300707885],[660000.6030249372,3997512.2431390393],[660021.2049348035,3997507.7100102487],[660053.3686843943,3997507.507761426],[660146.4160151562,3997514.967201853]]},"properties":{"FACNAME":"FLAMINGO WASH - LATERAL (FLAMINGO/RAINBOW)","W_FT":20,"D_H_FT":6,"FAC_DESC":"CONC CHNL 20'W 6'D 0:1 SS","FACTYPE":3}},{"type":"Feature","geometry":{"type":"LineString","coordinates":[[661716.5435612755,3996024.6382507836],[661738.2316628504,3996025.357125564]]},"properties":{"FACNAME":"TROPICANA WASH - NORTH BRANCH","W_FT":15,"D_H_FT":6.5,"FAC_DESC":"CONC CHNL 15'W 5'D 0:1 SS","FACTYPE":3}},{"type":"Feature","geometry":{"type":"LineString","coordinates":[[666243.491965715,3997922.5536740683],[666448.321973301,3998091.3905981435]]},"properties":{"FACNAME":"TROPICANA WASH","W_FT":12,"D_H_FT":4,"FAC_DESC":"6: 12' X 4' RCB","FACTYPE":27}},{"type":"Feature","geometry":{"type":"LineString","coordinates":[[661226.2752358112,3994756.1537425797],[661246.0954899358,3994736.276904438],[661272.3350271014,3994713.9861936355]]},"properties":{"FACNAME":"FLAMINGO - TROPICANA DIVERSION CHANNEL","W_FT":26,"D_H_FT":18,"FAC_DESC":"CONC CHNL 26'W 18'D 0:1 SS","FACTYPE":3}},{"type":"Feature","geometry":{"type":"LineString","coordinates":[[663358.8707063135,3993817.1514851595],[663358.9047735701,3993821.3152775913],[663358.7575926576,3993831.4206387494],[663355.6242186559,3993956.2840901613]]},"properties":{"FACNAME":"WAGON TRAIL CHANNEL","W_FT":10,"D_H_FT":6.5,"FAC_DESC":"RIPRAP CHNL 10'W 6.5'D 2:1 SS","FACTYPE":4}},{"type":"Feature","geometry":{"type":"LineString","coordinates":[[663743.6526356726,3995809.097621764],[663750.1756626185,3995820.34461171],[663750.2252779363,3995840.297038691]]},"properties":{"FACNAME":"TROPICANA WASH","W_FT":15,"D_H_FT":6.5,"FAC_DESC":"15' X 6.5' RCB","FACTYPE":27}},{"type":"Feature","geometry":{"type":"LineString","coordinates":[[659834.0255919984,3996918.5806879685],[659880.0396912169,3996918.531533986],[660583.1794131714,3996984.7541174935]]},"properties":{"FACNAME":"FLAMINGO WASH","W_FT":40,"D_H_FT":5,"FAC_DESC":"RIPRAP CHNL 40'W 5'D 2:1 SS","FACTYPE":4}},{"type":"Feature","geometry":{"type":"LineString","coordinates":[[663734.4833966352,3994109.2211425914],[663762.4235509062,3994125.5500240168],[663852.7921337197,3994176.279362545]]},"properties":{"FACNAME":"WAGON TRAIL CHANNEL","W_FT":12,"D_H_FT":5,"FAC_DESC":"2: 12' X 5' RCBC @ I-15","FACTYPE":19}},{"type":"Feature","geometry":{"type":"LineString","coordinates":[[663344.9064847131,3998289.553452833],[663344.9318542797,3998289.6106294626],[663370.8732750897,3998308.824169459]]},"properties":{"FACNAME":"FLAMINGO WASH","W_FT":60,"D_H_FT":10,"FAC_DESC":"EARTH CHNL 60'W 10'D 3:1 SS (REPLACE W/ FLWA0893)","FACTYPE":2}},{"type":"Feature","geometry":{"type":"LineString","coordinates":[[665034.7855597063,4002728.9578572595],[665151.9383006396,4002730.5133066517],[665162.7452819718,4002729.5723716635],[665176.9040472253,4002727.729228926],[665190.0221979074,4002727.749235943],[665239.91728605,4002728.2334066173],[665262.4852344289,4002728.9723840845],[665283.0948820214,4002739.6598372585]]},"properties":{"FACNAME":"FREEWAY CHANNEL-WALDMAN AVENUE","W_FT":6,"D_H_FT":6,"FAC_DESC":"6' X 6' RCB","FACTYPE":27}},{"type":"Feature","geometry":{"type":"LineString","coordinates":[[662846.8335980136,3996294.060104194],[662934.5202668114,3996333.6642290964]]},"properties":{"FACNAME":"TROPICANA WASH - NORTH BRANCH","W_FT":20,"D_H_FT":5.75,"FAC_DESC":"20' X 5.75' RCAP","FACTYPE":28}},{"type":"Feature","geometry":{"type":"LineString","coordinates":[[667015.3699751821,3998336.604384888],[667045.1037250306,3998413.3578618728],[667064.0056426981,3998453.4173463443],[667097.050439664,3998470.1373430723],[667127.4536791205,3998479.3466507867]]},"properties":{"FACNAME":"TROPICANA WASH","W_FT":20,"D_H_FT":7.5,"FAC_DESC":"2: 20' X 7.5' RCAP","FACTYPE":28}},{"type":"Feature","geometry":{"type":"LineString","coordinates":[[662457.8495279496,3996084.5276429276],[662473.8690577855,3996134.193433498]]},"properties":{"FACNAME":"TROPICANA WASH - NORTH BRANCH","W_FT":0,"D_H_FT":0,"FAC_DESC":"37,000 CFS PMF SPILLWAY","FACTYPE":10}},{"type":"Feature","geometry":{"type":"LineString","coordinates":[[667589.8746370665,3998601.146202353],[667624.1234751613,3998600.02852584]]},"properties":{"FACNAME":"FLAMINGO WASH","W_FT":12,"D_H_FT":12,"FAC_DESC":"4: 12' X 12' RCBC @ MARYLAND","FACTYPE":19}},{"type":"Feature","geometry":{"type":"LineString","coordinates":[[665307.7013276466,3997364.5620729695],[665314.7268476535,3997360.833594849],[665317.5117185832,3997359.4941133517],[665321.3662127145,3997358.2720351913],[665323.6682641702,3997357.7188157304],[665325.0450591125,3997357.3879395323],[665328.546064046,3997357.012915894],[665330.5908444569,3997357.127930829],[665360.709109428,3997357.774053653],[665390.3302713719,3997358.409430475],[665430.341295385,3997359.2676566476],[665434.5957758224,3997359.8409333294],[665438.8352524173,3997361.436720042],[665442.453239891,3997364.7280626507],[665445.1212851782,3997368.858066467],[665446.604739446,3997372.6135590016],[665446.0683454212,3997383.909463449],[665444.4436953044,3997392.407155357],[665442.183968185,3997406.9770557764],[665441.4841390101,3997414.040345382],[665441.1593667055,3997417.281119993],[665439.9872753436,3997428.969208793],[665440.0596434177,3997435.7031109943],[665439.6028178199,3997461.2391669606],[665440.4608512917,3997466.7059602025],[665443.1177177725,3997471.602798455],[665447.5857467928,3997475.0769541487],[665452.677650666,3997476.685067558],[665458.3938235821,3997476.4275443996],[665468.7703611501,3997475.2178228856],[665477.9884843313,3997474.499980176],[665488.5694480974,3997473.8872131114],[665502.922652124,3997473.7571845977],[665528.0432074756,3997474.0050303005],[665598.7302554671,3997474.7032325263],[665647.4978005849,3997475.18494615],[665649.9168593155,3997475.325420007],[665652.5962984969,3997475.627309147],[665655.0581743019,3997476.041441662],[665658.2807647183,3997476.7768017156],[665662.4140816611,3997478.355341698],[665662.6224070378,3997478.4651918015],[665666.7763016529,3997480.656109239],[665669.3102957377,3997482.2909473986],[665671.0438924585,3997483.994128985],[665676.5076140091,3997488.5823399075],[665700.5823093273,3997508.7995737074],[665714.5888358823,3997520.563201141]]},"properties":{"FACNAME":"TROPICANA WASH","W_FT":10,"D_H_FT":6,"FAC_DESC":"3: 10' X 6' RCB","FACTYPE":27}},{"type":"Feature","geometry":{"type":"LineString","coordinates":[[665289.9750749844,3998518.218099399],[665310.0193717313,3998513.6232203012],[665345.1785416191,3998504.38599549],[665363.128911468,3998495.9336057287],[665381.040103473,3998486.4024082846],[665403.3652637214,3998472.5829148213],[665421.6384259241,3998463.056992092],[665444.6260892091,3998453.599201905],[665463.9396839683,3998447.3523566197],[665485.791760205,3998441.1425195346],[665496.3992047498,3998439.440733304],[665506.5130341209,3998437.8180613476],[665529.7523521129,3998435.980496643],[665553.6951611132,3998435.604071122],[665578.6888677466,3998437.7820874765],[665602.9255245253,3998442.124842008],[665644.395059711,3998453.965755631]]},"properties":{"FACNAME":"FLAMINGO WASH","W_FT":30,"D_H_FT":10,"FAC_DESC":"CONC CHNL 30'W 10'D 0:1 SS","FACTYPE":3}},{"type":"Feature","geometry":{"type":"LineString","coordinates":[[664853.9811121732,4001488.4613487255],[664868.275907476,4001515.2029869156],[664891.7136981345,4001560.57331216],[664932.1204323749,4001633.855647219],[664971.7095761781,4001706.9170467965],[665015.9015052463,4001794.488918253],[665045.8071754824,4001852.965774137],[665057.7530556243,4001877.4796006735]]},"properties":{"FACNAME":"FREEWAY CHANNEL BYPASS FACILITY","W_FT":8,"D_H_FT":4,"FAC_DESC":"8' X 4' RCB","FACTYPE":27}},{"type":"Feature","geometry":{"type":"LineString","coordinates":[[666079.7041508004,3998446.466856887],[666140.0957854285,3998444.8750021164],[666193.115527278,3998445.9008198907],[666211.3131048565,3998444.9031639923],[666227.0116581457,3998442.101647337],[666237.9282394309,3998438.220283469],[666247.5923759239,3998433.562662384],[666254.7545089466,3998427.353469328],[666277.4949433886,3998409.2490360495],[666293.8131798304,3998398.627044802],[666305.7316164002,3998395.265349657],[666315.615499219,3998392.8841223666],[666339.6468587383,3998390.2040863927],[666364.2244867596,3998390.227161167],[666386.8039872864,3998390.2483086702]]},"properties":{"FACNAME":"FLAMINGO WASH","W_FT":12,"D_H_FT":9,"FAC_DESC":"2: 12' X 9' RCB","FACTYPE":27}},{"type":"Feature","geometry":{"type":"LineString","coordinates":[[667956.2916180512,3999053.075115781],[668019.0291824945,3999053.989900851],[668050.7111238694,3999015.394021677],[668049.9112493685,3998997.8666097247]]},"properties":{"FACNAME":"FLAMINGO WASH - ALGONQUIN","W_FT":0,"D_H_FT":5,"FAC_DESC":"60\" RCP","FACTYPE":26}},{"type":"Feature","geometry":{"type":"LineString","coordinates":[[665283.0948820214,4002739.6598372585],[665294.6470425328,4002764.5034126043],[665306.2945618131,4002791.399738985],[665317.989350002,4002820.1968958788],[665319.2013935032,4002823.1513521434],[665321.3981815763,4002827.4065403943],[665324.0277128795,4002831.408911155],[665326.5289445634,4002834.519197833],[665328.7192121663,4002836.8430484002],[665333.5585943907,4002841.004883673],[665338.9301619937,4002844.4526945283],[665352.0002198074,4002850.8117016903],[665393.2543667082,4002870.730756426],[665410.6231692596,4002878.8167073936],[665415.1607043653,4002880.3475086517],[665417.483357149,4002880.9327728646],[665420.6217469937,4002881.52254031],[665422.9984008605,4002881.820356274],[665426.185341376,4002882.023283415],[665428.5805563212,4002882.029233447],[665430.9729000569,4002881.909825788],[665433.3555658716,4002881.6654611677],[665435.7222455605,4002881.296647606],[665437.2879317375,4002880.982153353],[665467.323704737,4002872.3409242034],[665503.0700568724,4002862.7500979183],[665507.841552672,4002862.5517948754],[665512.585319275,4002863.102281756],[665517.1845404573,4002864.3879523915],[665525.5030873357,4002869.021115396],[665529.0175520189,4002872.254504221],[665531.9830064852,4002875.997846776],[665535.9900810467,4002884.635306235],[665536.9331902297,4002889.3168588514],[665538.3270142204,4002907.4955932037],[665538.5055909702,4002911.110455574]]},"properties":{"FACNAME":"FREEWAY CHANNEL FROM DESERT INN TO EXPRESSWAY","W_FT":18,"D_H_FT":10,"FAC_DESC":"2: 18' X 10' RCB","FACTYPE":27}},{"type":"Feature","geometry":{"type":"LineString","coordinates":[[662313.8514952807,3996043.847968849],[662321.9925385113,3996045.4403678123],[662326.9574000774,3996046.3336090418]]},"properties":{"FACNAME":"TROPICANA WASH - NORTH BRANCH","W_FT":14,"D_H_FT":6,"FAC_DESC":"2: 14' X 6' RCBC @ SCHIRLLS","FACTYPE":19}},{"type":"Feature","geometry":{"type":"LineString","coordinates":[[663414.2079655093,4002297.205893299],[663772.3203933695,4002302.0874689915]]},"properties":{"FACNAME":"OAKEY DRAIN","W_FT":5,"D_H_FT":6,"FAC_DESC":"5' X 6' RCB","FACTYPE":27}},{"type":"Feature","geometry":{"type":"LineString","coordinates":[[666556.4575227582,3997169.2087015016],[666551.057765655,3997158.73465448],[666463.4517874061,3997124.696855352]]},"properties":{"FACNAME":"TROPICANA WASH - SWENSON","W_FT":0,"D_H_FT":4.5,"FAC_DESC":"54\" RCP","FACTYPE":26}},{"type":"Feature","geometry":{"type":"LineString","coordinates":[[666064.101806541,3997497.7637402043],[666068.8293868027,3997486.361784091],[666068.7365714901,3997201.310793752],[666070.92284888,3996752.177145325]]},"properties":{"FACNAME":"TROPICANA WASH - MCCARRAN AIRPORT","W_FT":18,"D_H_FT":5,"FAC_DESC":"EARTH CHNL 18'W 5'D 2:1 SS (REPLACE W/ TRMC0031 and 0013)","FACTYPE":2}},{"type":"Feature","geometry":{"type":"LineString","coordinates":[[666215.7393782169,3997898.728004054],[666243.491965715,3997922.5536740683]]},"properties":{"FACNAME":"TROPICANA WASH","W_FT":10,"D_H_FT":4,"FAC_DESC":"10: 10' X 4' RCB","FACTYPE":27}},{"type":"Feature","geometry":{"type":"LineString","coordinates":[[661701.9675110593,3996019.908440213],[661716.5435612755,3996024.6382507836]]},"properties":{"FACNAME":"TROPICANA WASH - NORTH BRANCH","W_FT":24.5,"D_H_FT":6.5,"FAC_DESC":"TRANSITION CHNL 34'W 6.5'D TO 15'W 6.5'D 0:1 SS","FACTYPE":41}},{"type":"Feature","geometry":{"type":"LineString","coordinates":[[661522.5892572161,3996839.661775769],[661608.8682581701,3996840.7806979404],[661651.4257346377,3996861.9966810322],[661664.6903381273,3996865.62049246]]},"properties":{"FACNAME":"FLAMINGO WASH","W_FT":24,"D_H_FT":9,"FAC_DESC":"2: 24' X 9' RCAP","FACTYPE":28}},{"type":"Feature","geometry":{"type":"LineString","coordinates":[[660653.9694595158,3998186.807044769],[660895.1595433259,3998207.610119802]]},"properties":{"FACNAME":"FLAMINGO WASH - FLAMINGO STORM DRAIN","W_FT":0,"D_H_FT":3.25,"FAC_DESC":"39\" RCP","FACTYPE":26}},{"type":"Feature","geometry":{"type":"LineString","coordinates":[[662243.1119815236,3997480.6636637175],[662415.440305997,3997647.4926604778],[662444.553707388,3997676.0407109982],[662477.8384156006,3997710.309430803],[662495.5132537324,3997725.4806131236],[662495.5186876168,3997725.4851928577]]},"properties":{"FACNAME":"FLAMINGO WASH","W_FT":60,"D_H_FT":14,"FAC_DESC":"EARTH CHNL 60'W 14'D 1:1 SS (REPLACE W/ FLWA0941)","FACTYPE":2}},{"type":"Feature","geometry":{"type":"LineString","coordinates":[[664350.647872175,4002304.4789789724],[664677.318578936,4002304.2532156287]]},"properties":{"FACNAME":"OAKEY DRAIN","W_FT":10,"D_H_FT":8,"FAC_DESC":"10' X 8' RCB","FACTYPE":27}},{"type":"Feature","geometry":{"type":"LineString","coordinates":[[663364.7232222214,3994077.943106267],[663369.121613865,3994078.7418583306],[663375.7466983042,3994078.1036679163],[663400.4308447889,3994074.0523767313],[663451.6553981309,3994064.6909759203],[663570.822165096,3994033.716165399],[663591.0779034424,3994030.886521388],[663596.2223292338,3994030.9614514057],[663601.3613999421,3994031.4040475446],[663606.8520815657,3994032.9542973004],[663616.4617734532,3994039.962289511]]},"properties":{"FACNAME":"WAGON TRAIL CHANNEL","W_FT":35,"D_H_FT":4,"FAC_DESC":"RIPRAP CHNL 35'W 4'D 2:1 SS","FACTYPE":4}},{"type":"Feature","geometry":{"type":"LineString","coordinates":[[663750.2252779363,3995840.297038691],[663750.4015663478,3995911.572295385],[663738.1298720241,3996356.778335238]]},"properties":{"FACNAME":"TROPICANA WASH","W_FT":19.5,"D_H_FT":7,"FAC_DESC":"19.5' X 7' RCB","FACTYPE":27}},{"type":"Feature","geometry":{"type":"LineString","coordinates":[[661266.0849513966,3996946.2651991243],[661266.280009801,3996891.852708247]]},"properties":{"FACNAME":"FLAMINGO WASH","W_FT":0,"D_H_FT":0,"FAC_DESC":"28,950 CFS PMF SPILLWAY","FACTYPE":10}},{"type":"Feature","geometry":{"type":"LineString","coordinates":[[662762.3824831556,4002287.436017001],[663414.2079655093,4002297.205893299]]},"properties":{"FACNAME":"OAKEY DRAIN","W_FT":5,"D_H_FT":5,"FAC_DESC":"5' X 5' RCB","FACTYPE":27}},{"type":"Feature","geometry":{"type":"LineString","coordinates":[[667624.1234751613,3998600.02852584],[667722.5106106681,3998598.556494969],[667773.0603865628,3998598.882641063],[667830.715531613,3998613.2909461944],[667877.8859741545,3998626.7602866227],[667925.7427051422,3998644.750840127],[667973.6168085424,3998668.4511165167],[668004.0392530109,3998688.565608523],[668022.296642533,3998701.6302162176]]},"properties":{"FACNAME":"FLAMINGO WASH","W_FT":40,"D_H_FT":9,"FAC_DESC":"CONC CHNL 40'W VARIES 9'D TO 12'D 0:1 SS","FACTYPE":3}},{"type":"Feature","geometry":{"type":"LineString","coordinates":[[664852.9017582558,3999400.8857245278],[664882.9691430087,3999388.769913858],[664907.0593582956,3999376.566941137],[664928.7589758259,3999364.3298067846],[664946.353112289,3999346.651835297],[664960.4051349428,3999325.9336390942],[664974.5441138275,3999299.23836504],[665011.7732498586,3999205.924943954],[665022.273547555,3999182.7633498465],[665034.5234119608,3999162.616237936],[665052.1873593068,3999140.157071119],[665073.9741328384,3999121.9427400413],[665099.3474920862,3999103.78070338],[665130.6275116134,3999090.487087467],[665171.9982217241,3999082.123301147],[665243.5480746496,3999078.728326959],[665626.1295123622,3999079.429701909]]},"properties":{"FACNAME":"FLAMINGO - FASHION","W_FT":8,"D_H_FT":5,"FAC_DESC":"8' X 5' RCB","FACTYPE":27}},{"type":"Feature","geometry":{"type":"LineString","coordinates":[[662256.1464233834,3994703.1365817976],[662266.4868001627,3994702.6299378825],[662275.2246576676,3994702.839635099],[662282.5918202956,3994705.296827563],[662293.4338314554,3994712.0898361825],[662306.725781882,3994724.8245192016],[662321.3600879512,3994734.7375285453]]},"properties":{"FACNAME":"TROPICANA WASH","W_FT":10,"D_H_FT":6,"FAC_DESC":"CONC CHNL 10'W 6'D 0:1 SS","FACTYPE":3}},{"type":"Feature","geometry":{"type":"LineString","coordinates":[[660339.2146981417,3997530.112228482],[660349.2920346074,3997530.405234244],[660356.6572160125,3997529.220148912],[660365.0777416303,3997527.5459910254],[660371.1858126028,3997526.3315804233],[660378.3798783685,3997524.1582923112],[660386.0743583892,3997521.226213998],[660392.8047750482,3997518.6617251313],[660401.5555499056,3997515.0175632704],[660407.7592256878,3997511.848130549],[660414.5692834419,3997508.3689013603],[660421.402718201,3997504.877711416],[660427.9297683272,3997500.0109044393],[660433.6104876203,3997495.6544185886],[660439.9864933125,3997490.5836873767],[660445.8299189177,3997485.329173626],[660450.8486443401,3997480.8163218154],[660455.8972526451,3997475.7422435493],[660461.709255104,3997469.377548935],[660466.9308134204,3997463.1623651804],[660471.2709214343,3997456.374471476],[660475.4462549868,3997449.844304512],[660480.4846115395,3997440.5265079993],[660483.9142300335,3997433.929965024],[660487.655827703,3997426.7334026075],[660490.5124628075,3997419.479536006],[660493.239339039,3997410.979940717],[660495.8639554111,3997402.799290111],[660497.9063740814,3997394.737567422],[660499.5627144766,3997385.8686287967],[660500.9612081032,3997378.3800844825],[660502.0295181441,3997370.5516904662],[660500.2229510724,3997295.450075589],[660502.688358692,3997146.926319433],[660503.0136624705,3997135.311478772],[660504.0682999913,3997120.605125838],[660505.2580641678,3997110.639465124],[660506.9141116966,3997101.8175258166],[660510.2302896839,3997091.482712989],[660512.918684587,3997083.1044670506],[660517.4201853528,3997075.2679035254],[660522.9282325885,3997065.679114933],[660529.0636203265,3997055.9893571944],[660533.8616043417,3997048.588461681],[660539.9303961967,3997039.2272690604],[660583.1794131714,3996984.7541174935]]},"properties":{"FACNAME":"FLAMINGO WASH - LATERAL (FLAMINGO/RAINBOW)","W_FT":20,"D_H_FT":6,"FAC_DESC":"CONC CHNL 20'W 6'D 0:1 SS","FACTYPE":3}},{"type":"Feature","geometry":{"type":"LineString","coordinates":[[662492.0139322912,3996215.36806849],[662518.5546129814,3996209.9333439763]]},"properties":{"FACNAME":"TROPICANA WASH - NORTH BRANCH","W_FT":0,"D_H_FT":8.67000007,"FAC_DESC":"104\" RCP (HOBAS)","FACTYPE":26}},{"type":"Feature","geometry":{"type":"LineString","coordinates":[[666064.101806541,3997497.7637402043],[666063.7000748891,3997524.267772915]]},"properties":{"FACNAME":"TROPICANA WASH - MCCARRAN AIRPORT","W_FT":16,"D_H_FT":4,"FAC_DESC":"2: 16' X 4' RCBC @ HARMON","FACTYPE":19}},{"type":"Feature","geometry":{"type":"LineString","coordinates":[[663241.9832644094,3998150.884250216],[663269.8510254441,3998171.1946826912],[663300.9689652082,3998207.380487005],[663325.9664843546,3998247.0986035303],[663344.9064847131,3998289.553452833]]},"properties":{"FACNAME":"FLAMINGO WASH","W_FT":60,"D_H_FT":10,"FAC_DESC":"EARTH CHNL 60'W 10'D 3:1 SS (REPLACE W/ FLWA0896)","FACTYPE":2}},{"type":"Feature","geometry":{"type":"LineString","coordinates":[[664215.861553183,3996704.949354551],[664293.157349818,3996708.5344409896],[664311.2373206042,3996708.7979332907],[664331.4442680936,3996707.8868760695],[664389.6234958146,3996707.227778758],[664411.9063279633,3996700.24852682],[664416.8187738993,3996703.6699300185],[664431.3403179478,3996713.451536503],[664434.7305886858,3996715.959446987],[664437.4705147953,3996718.691408213],[664439.516003185,3996721.413248922],[664441.2845393573,3996724.5275020706],[664443.9740539896,3996730.1214800063],[664444.8890820103,3996734.464346685],[664445.1230601391,3996739.271546091],[664444.8068872463,3996769.7705812193],[664444.3194593589,3996774.7710919473],[664443.3175998793,3996778.5067510903],[664442.0426047561,3996782.0504064728],[664440.2813975757,3996785.0761131183],[664430.4803390113,3996799.7448897534],[664429.08189359,3996802.0419930676],[664427.4195532032,3996805.2423616094],[664426.6950517778,3996807.3156583],[664429.184002344,3996831.0082339817]]},"properties":{"FACNAME":"TROPICANA WASH","W_FT":10,"D_H_FT":5.5,"FAC_DESC":"3: 9.5' X 5.5' & 1: 10' X 5.5' RCB","FACTYPE":27}},{"type":"Feature","geometry":{"type":"LineString","coordinates":[[664416.7247014417,3998537.1821305724],[664446.0391902801,3998537.9441611767]]},"properties":{"FACNAME":"FLAMINGO WASH","W_FT":10,"D_H_FT":8,"FAC_DESC":"8: 10' X 8' RCB","FACTYPE":27}},{"type":"Feature","geometry":{"type":"LineString","coordinates":[[667127.4536791205,3998479.3466507867],[667147.2482640916,3998479.8002640447],[667168.3299789019,3998481.731534414],[667181.128470085,3998494.9087342634],[667191.515426561,3998506.427063076],[667208.3445492822,3998513.0186558845]]},"properties":{"FACNAME":"FLAMINGO WASH","W_FT":36,"D_H_FT":12.5,"FAC_DESC":"36' X 12.5' RCAP","FACTYPE":28}},{"type":"Feature","geometry":{"type":"LineString","coordinates":[[666996.6093580393,3998288.9853847194],[667015.3699751821,3998336.604384888]]},"properties":{"FACNAME":"TROPICANA WASH","W_FT":46,"D_H_FT":6.6,"FAC_DESC":"46'W TO 72'W 6'-8\"'D TO 7'-8\"D TRANSITION RCB ","FACTYPE":40}},{"type":"Feature","geometry":{"type":"LineString","coordinates":[[663397.0074554833,3998300.4850309216],[663415.4569400384,3998294.9434060347],[663440.3790757786,3998291.9142323416],[663457.3255418509,3998293.00919088],[663475.6321102761,3998297.79911798],[663494.5751017447,3998303.374816845]]},"properties":{"FACNAME":"FLAMINGO WASH","W_FT":100,"D_H_FT":3.5,"FAC_DESC":"GABION CHNL 100'W 3.5'D 3:1 SS","FACTYPE":5}},{"type":"Feature","geometry":{"type":"LineString","coordinates":[[661327.2200550894,3996785.8463942898],[661327.7564044396,3996785.963823377],[661330.1125556658,3996786.479516077],[661333.5359454288,3996787.549823514],[661334.9336236231,3996788.0905519314],[661334.9786743018,3996788.1080103954],[661394.2390537837,3996806.6924712686],[661395.9835788431,3996807.239554958],[661397.5355609091,3996807.6920221485],[661398.9842533414,3996807.8204475106],[661400.2737253746,3996807.839240257],[661435.62637648,3996808.6456023073],[661470.3316858544,3996810.3833367866],[661522.5892572161,3996839.661775769]]},"properties":{"FACNAME":"FLAMINGO WASH","W_FT":12,"D_H_FT":10,"FAC_DESC":"3: 12' X 10' RCAP","FACTYPE":28}},{"type":"Feature","geometry":{"type":"LineString","coordinates":[[660805.6430954337,3993488.4580141646],[660804.74044195,3993550.4379593115],[660805.7379650256,3993598.11538529],[660812.1165406066,3993628.930097897],[660822.6297048153,3993658.465379254],[660860.2355702763,3993723.503354137],[660881.0620567705,3993758.3686273014],[660906.8594014161,3993803.5473448704],[660933.5653830545,3993844.898575297],[660971.9984749183,3993905.688967837],[660996.9669717969,3993944.8142629713],[661019.1221063053,3993975.9775014278],[661033.1790629125,3994000.691084402],[661045.9252986049,3994018.7080311887],[661058.6739047291,3994032.5247436343],[661076.1229506033,3994051.181355031],[661093.3706990902,3994063.9860809376],[661106.4596508935,3994074.1150404857],[661124.0575756952,3994082.5502785756],[661153.8317537904,3994097.2966587436],[661176.8811351203,3994105.811402481],[661206.7353115876,3994115.1069394243],[661250.8689011029,3994126.654395646],[661299.1808660525,3994139.959706826],[661344.9328836408,3994150.715251106]]},"properties":{"FACNAME":"BLUE DIAMOND CHANNEL","W_FT":10,"D_H_FT":10,"FAC_DESC":"CONC CHNL 10'W 10'D 2:1 SS","FACTYPE":3}},{"type":"Feature","geometry":{"type":"LineString","coordinates":[[662169.5489062839,3995845.138636918],[662198.4867618429,3995845.4947819686],[662216.2823457553,3995845.8910967587],[662219.9970677106,3995846.097541487],[662243.2081140605,3995851.556941836],[662244.471622478,3995851.538948193],[662251.529402098,3995851.438563503],[662309.8782585487,3995850.6083693383],[662316.1084972186,3995851.5750516634],[662319.5695417821,3995854.001858166],[662323.3085123807,3995856.573230681],[662326.1733493261,3995861.507941913],[662327.2269083648,3995865.4726515515],[662327.3667553068,3995865.9990501036],[662327.7370338149,3995869.359834746],[662327.4432295787,3995880.579955988],[662327.0605018906,3995895.198475938],[662325.6458747396,3995949.226533834],[662325.0224346176,3995975.594209659],[662324.9867279793,3995977.1043646308],[662324.3101092282,3996005.721226516],[662323.672231996,3996032.7018629336],[662323.6512950086,3996033.582760082],[662323.9965043903,3996035.492911348],[662324.5525145014,3996037.1576054823],[662325.4421131706,3996038.619836482],[662326.2496554272,3996040.0509683285],[662326.9574000774,3996046.3336090418]]},"properties":{"FACNAME":"TROPICANA WASH - NORTH BRANCH SCHIRLLS","W_FT":0,"D_H_FT":5,"FAC_DESC":"60\" RCP","FACTYPE":26}},{"type":"Feature","geometry":{"type":"LineString","coordinates":[[661684.6958678818,3996010.65463996],[661701.9675110593,3996019.908440213]]},"properties":{"FACNAME":"TROPICANA WASH - NORTH BRANCH","W_FT":8,"D_H_FT":4,"FAC_DESC":"3: 8' X 4' RCBC @ CAMERON","FACTYPE":19}},{"type":"Feature","geometry":{"type":"LineString","coordinates":[[666448.321973301,3998091.3905981435],[666485.1898091354,3998121.345060359],[666529.5729730217,3998138.206082887],[666616.3389954012,3998142.384656446],[666694.9560194518,3998148.6806240752]]},"properties":{"FACNAME":"TROPICANA WASH","W_FT":80,"D_H_FT":5.5,"FAC_DESC":"CONC CHNL 80'W 5.5'D 0:1 SS","FACTYPE":3}},{"type":"Feature","geometry":{"type":"LineString","coordinates":[[661275.6370093606,3998242.989734039],[661630.3508271965,3998250.6038099527]]},"properties":{"FACNAME":"FLAMINGO WASH - FLAMINGO STORM DRAIN","W_FT":0,"D_H_FT":3.5,"FAC_DESC":"42\" RCP","FACTYPE":26}},{"type":"Feature","geometry":{"type":"LineString","coordinates":[[663772.3203933695,4002302.0874689915],[664057.3879901273,4002304.2985370154]]},"properties":{"FACNAME":"OAKEY DRAIN","W_FT":5,"D_H_FT":5,"FAC_DESC":"5' X 5' RCB","FACTYPE":27}},{"type":"Feature","geometry":{"type":"LineString","coordinates":[[661211.6225500025,4001868.284903968],[661207.4537723722,4002079.848232645]]},"properties":{"FACNAME":"OAKEY MEADOWS STORMDRAIN","W_FT":12,"D_H_FT":6,"FAC_DESC":"12' X 6' RCB","FACTYPE":27}},{"type":"Feature","geometry":{"type":"LineString","coordinates":[[666694.9560194518,3998148.6806240752],[666707.1179615785,3998149.540712872]]},"properties":{"FACNAME":"TROPICANA WASH","W_FT":12,"D_H_FT":8,"FAC_DESC":"6: 12' X 8' RCBC @ ACCESS ROAD","FACTYPE":19}},{"type":"Feature","geometry":{"type":"LineString","coordinates":[[665569.29527176,4002787.6051044706],[665566.388984418,4002787.2980600423],[665563.7413828231,4002787.3917407547],[665557.3415389573,4002788.3604831332],[665553.9397897355,4002789.369275724],[665551.0408415708,4002792.184832988]]},"properties":{"FACNAME":"FREEWAY CHANNEL BYPASS FACILITY RR BRANCH","W_FT":0,"D_H_FT":4,"FAC_DESC":"48\" RCP","FACTYPE":26}},{"type":"Feature","geometry":{"type":"LineString","coordinates":[[662928.0036823543,3998071.9746159636],[662967.7945394355,3998096.8876602123],[662998.5918863113,3998108.597856896],[663037.4898608788,3998112.5855201003],[663058.1538919071,3998112.655135188],[663091.4372020627,3998112.7670987397],[663135.0245762359,3998116.2174542937],[663161.5507260032,3998119.5995113538],[663202.2932180219,3998128.9672035766]]},"properties":{"FACNAME":"FLAMINGO WASH","W_FT":30,"D_H_FT":15,"FAC_DESC":"EARTH/CONC CHNL 30'W 15'D 1:1 SS (REPLACE W/ FLWA0903)","FACTYPE":2}},{"type":"Feature","geometry":{"type":"LineString","coordinates":[[664677.318578936,4002304.2532156287],[664711.9667139711,4002304.2292116485],[664929.2422636732,4002304.0788338017],[664987.4081968082,4002304.0725444155],[665007.8446748306,4002304.070401946],[665021.8917341437,4002312.7473233514],[665036.9592318247,4002322.890316126],[665046.4047251923,4002332.9512769417],[665064.1222538161,4002349.4481275165]]},"properties":{"FACNAME":"OAKEY DRAIN","W_FT":10,"D_H_FT":8,"FAC_DESC":"10' X 8' RCB","FACTYPE":27}},{"type":"Feature","geometry":{"type":"LineString","coordinates":[[662207.3451502162,3997445.320193618],[662243.1119815236,3997480.6636637175]]},"properties":{"FACNAME":"FLAMINGO WASH","W_FT":10,"D_H_FT":6,"FAC_DESC":"3: 10' X 6' RCBC @ HARMON","FACTYPE":19}},{"type":"Feature","geometry":{"type":"LineString","coordinates":[[664798.161360276,4001928.2606332377],[664803.2546597498,4001939.141385076],[664804.4018045862,4001943.871006507],[664805.038127477,4001953.5674918094],[664804.3861116464,4001959.2524848883],[664804.0033163228,4001962.6557225157],[664803.8725748019,4001965.2211333127],[664803.9533520032,4001969.500742397],[664804.286470289,4001972.909124717],[664804.8565766888,4001976.2860604413],[664805.6608121917,4001979.615005812],[664806.4153850214,4001982.0704183723],[664807.6192627359,4001985.2764787143],[664809.4338317588,4001989.153231332],[664855.1819768874,4002058.9289919953],[664950.6975909217,4002200.2387311487],[664982.7720603612,4002246.500533708],[665002.9753315719,4002267.155759844],[665010.4511768696,4002276.1956546456]]},"properties":{"FACNAME":"FREEWAY CHANNEL FROM DESERT INN TO EXPRESSWAY","W_FT":20,"D_H_FT":8,"FAC_DESC":"20' X 8' RCB","FACTYPE":27}},{"type":"Feature","geometry":{"type":"LineString","coordinates":[[666857.3751549891,3996222.890872442],[666862.5666199243,3996169.2000185046]]},"properties":{"FACNAME":"VAN BUSKIRK - TOMPKINS AVENUE","W_FT":0,"D_H_FT":0,"FAC_DESC":"620 CFS SPILLWAY","FACTYPE":10}},{"type":"Feature","geometry":{"type":"LineString","coordinates":[[662321.3600879512,3994734.7375285453],[662330.7812672128,3994741.5832495345],[662334.2219782949,3994744.658122989],[662336.7983691073,3994747.2812545565],[662340.1833909814,3994751.542654637],[662341.9385003854,3994754.6316777044],[662342.7642963331,3994756.368607669],[662343.2766597898,3994757.4461957216],[662345.0516061063,3994761.8372588856],[662346.5453903582,3994767.3562576156],[662347.2359284636,3994772.535616975],[662347.2174408293,3994776.4410008965],[662347.2256436798,3994776.818464186],[662347.4263713894,3994785.969649955],[662347.7020835128,3994790.721817452],[662348.3698385156,3994794.8288205783],[662349.6048900485,3994799.4417456686],[662351.1959831945,3994803.704516265],[662353.6182248595,3994808.3344360427],[662356.4672382101,3994812.626433037],[662359.9515686062,3994816.4074248467],[662360.3679249984,3994816.7707316913],[662363.923148817,3994819.8730774336],[662366.3881682093,3994821.593982857],[662369.5374612199,3994823.631092206],[662374.9230983244,3994825.97821235],[662380.8328130828,3994827.8642127668],[662385.6103735729,3994828.584686798],[662389.9744821596,3994828.7630754923],[662414.9577729807,3994829.6083824593],[662459.8540650646,3994831.1277225013],[662463.6084792834,3994831.067502625],[662467.1647592206,3994831.502354341],[662470.669786292,3994832.0502726776],[662471.5093723275,3994832.1815174455],[662475.1755188588,3994832.962809853],[662479.2537075818,3994834.3623761353],[662482.7953897561,3994835.7924311953],[662485.9513770906,3994837.3700854047],[662489.7222921106,3994839.657879479],[662492.90205074,3994842.013470654],[662493.360160192,3994842.3528830796],[662496.5395301089,3994845.0029029506],[662499.153813921,3994847.6199879143],[662506.7375964142,3994856.2908649547],[662516.9128257897,3994867.9244353315],[662520.3398887252,3994871.956824782],[662523.9729887722,3994875.5832681693],[662528.0600143793,3994879.012500625],[662532.7054393793,3994881.88330182],[662536.736308814,3994883.894851099],[662540.6592854862,3994885.4450750137],[662544.8681646839,3994886.661024497],[662546.8472105567,3994886.996390924],[662549.0714794362,3994887.3733341927],[662552.6666753521,3994887.731944607],[662565.9962776948,3994888.2573684445],[662566.0840562062,3994888.2595473044]]},"properties":{"FACNAME":"TROPICANA WASH","W_FT":10,"D_H_FT":6,"FAC_DESC":"10' X 6' RCB","FACTYPE":27}},{"type":"Feature","geometry":{"type":"LineString","coordinates":[[661523.8376762192,3996010.6610650476],[661684.6958678818,3996010.65463996]]},"properties":{"FACNAME":"TROPICANA WASH - NORTH BRANCH","W_FT":17,"D_H_FT":7.5,"FAC_DESC":"UNLINED CHNL 17'W 7.5'D 2:1 SS","FACTYPE":2}},{"type":"Feature","geometry":{"type":"LineString","coordinates":[[662518.5546129814,3996209.9333439763],[662542.3056722304,3996205.212255913]]},"properties":{"FACNAME":"TROPICANA WASH - NORTH BRANCH","W_FT":10,"D_H_FT":7,"FAC_DESC":"10' X 7' RCB","FACTYPE":27}},{"type":"Feature","geometry":{"type":"LineString","coordinates":[[660522.4317818023,3998175.4619070045],[660653.9694595158,3998186.807044769]]},"properties":{"FACNAME":"FLAMINGO WASH - FLAMINGO STORM DRAIN","W_FT":0,"D_H_FT":2.75,"FAC_DESC":"33\" RCP","FACTYPE":26}},{"type":"Feature","geometry":{"type":"LineString","coordinates":[[663739.0224729418,3996443.03243274],[663822.2185507071,3996483.0605251575],[663873.0608866124,3996513.737769757],[663916.6917233435,3996544.513254165],[663973.7616631833,3996583.773003639],[664022.6438683474,3996616.1321206084],[664126.9049252886,3996700.3850298584],[664182.3458126821,3996701.494344675],[664215.861553183,3996704.949354551]]},"properties":{"FACNAME":"TROPICANA WASH","W_FT":8,"D_H_FT":7,"FAC_DESC":"4: 8' X 7' RCB","FACTYPE":27}},{"type":"Feature","geometry":{"type":"LineString","coordinates":[[661345.1725080316,3996017.1360751623],[661488.5092196262,3996019.4222289408],[661523.8376762192,3996010.6610650476]]},"properties":{"FACNAME":"TROPICANA WASH - NORTH BRANCH","W_FT":25,"D_H_FT":7.5,"FAC_DESC":"CONC CHNL 25'W 7.5'D 0:1 SS","FACTYPE":3}},{"type":"Feature","geometry":{"type":"LineString","coordinates":[[663243.6780505981,3996458.1397051825],[663258.2471786242,3996465.1813322506],[663293.9912171289,3996465.6079165395],[663447.1229327196,3996466.2500057165],[663637.6142218302,3996466.0127626564]]},"properties":{"FACNAME":"TROPICANA WASH - NORTH BRANCH","W_FT":15,"D_H_FT":8,"FAC_DESC":"EARTH/CONC CHNL 15'W 8'D 2:1 SS (REPLACE W/ TRNB0031)","FACTYPE":2}},{"type":"Feature","geometry":{"type":"LineString","coordinates":[[667243.5319437701,3998536.022026739],[667263.3559234473,3998547.500523218],[667275.9647653607,3998554.5193541828],[667288.8037107219,3998561.1078834045],[667299.8553606053,3998566.3148765345],[667301.8581686553,3998567.2584971343],[667315.1130395696,3998572.9641742874],[667328.5533151212,3998578.218495189],[667342.1634826284,3998583.015332837],[667355.9281206476,3998587.349161646],[667369.8314975527,3998591.2151515936],[667383.8574759155,3998594.608866786],[667397.9903109742,3998597.526377123],[667412.2136492768,3998599.96434371],[667426.5113300525,3998601.919930514],[667440.8669808748,3998603.3910985375],[667455.2641278682,3998604.375907299],[667469.6862825732,3998604.873416245],[667484.1170521465,3998604.8829862564],[667498.5399349917,3998604.404576698],[667546.3823166213,3998602.0073951455]]},"properties":{"FACNAME":"FLAMINGO WASH","W_FT":40,"D_H_FT":13,"FAC_DESC":"CONC CHNL 40'W 12'-14'D 0:1 SS","FACTYPE":3}},{"type":"Feature","geometry":{"type":"LineString","coordinates":[[664490.8605696412,4001493.902600924],[664526.128758711,4001540.9958544155],[664585.2152096649,4001634.750914907],[664653.5317856203,4001746.1097310293]]},"properties":{"FACNAME":"FREEWAY CHANNEL FROM DESERT INN TO EXPRESSWAY","W_FT":10,"D_H_FT":8,"FAC_DESC":"2: 10' X 8' RCB","FACTYPE":27}},{"type":"Feature","geometry":{"type":"LineString","coordinates":[[663616.4617734532,3994039.962289511],[663627.0815983082,3994047.587467395],[663632.0686774404,3994051.166226839]]},"properties":{"FACNAME":"WAGON TRAIL CHANNEL","W_FT":0,"D_H_FT":8,"FAC_DESC":"3: 96\" CMPC","FACTYPE":22}},{"type":"Feature","geometry":{"type":"LineString","coordinates":[[666386.8039872864,3998390.2483086702],[666432.5250425136,3998390.4088120367]]},"properties":{"FACNAME":"FLAMINGO WASH","W_FT":12,"D_H_FT":8,"FAC_DESC":"5: 12' X 8' RCB","FACTYPE":27}},{"type":"Feature","geometry":{"type":"LineString","coordinates":[[663637.6142218302,3996466.0127626564],[663649.2669788842,3996466.0843657944],[663651.8954201266,3996466.473812119]]},"properties":{"FACNAME":"TROPICANA WASH - NORTH BRANCH","W_FT":30,"D_H_FT":5,"FAC_DESC":"CONC CHNL 30'W 5'D 0:1 SS","FACTYPE":3}},{"type":"Feature","geometry":{"type":"LineString","coordinates":[[665255.1503213265,3997383.700194104],[665277.1688684322,3997384.2979678214]]},"properties":{"FACNAME":"TROPICANA WASH","W_FT":8,"D_H_FT":7,"FAC_DESC":"3: 8' X 7' RCB","FACTYPE":27}},{"type":"Feature","geometry":{"type":"LineString","coordinates":[[664646.9325403502,3995224.617835954],[664658.596310336,3995225.302129459]]},"properties":{"FACNAME":"TROPICANA WASH - MCCARRAN AIRPORT","W_FT":8,"D_H_FT":6,"FAC_DESC":"2: 8' X 6' RCBC @ DEWEY","FACTYPE":19}},{"type":"Feature","geometry":{"type":"LineString","coordinates":[[662878.2361830268,3998021.263916982],[662928.0036823543,3998071.9746159636]]},"properties":{"FACNAME":"FLAMINGO WASH","W_FT":12,"D_H_FT":6,"FAC_DESC":"3: 12' X 6' RCBC @ VALLEY VIEW","FACTYPE":19}},{"type":"Feature","geometry":{"type":"LineString","coordinates":[[661207.4537723722,4002079.848232645],[661203.7260189505,4002269.0177678056],[661203.88255623,4002277.1866722554]]},"properties":{"FACNAME":"OAKEY MEADOWS STORMDRAIN","W_FT":12,"D_H_FT":7,"FAC_DESC":"12' X 7' RCB","FACTYPE":27}},{"type":"Feature","geometry":{"type":"LineString","coordinates":[[660968.728591339,3994964.3249008292],[661012.2328769374,3994930.780656268],[661085.3172658684,3994875.845478816]]},"properties":{"FACNAME":"FLAMINGO - TROPICANA DIVERSION CHANNEL","W_FT":26,"D_H_FT":16.5,"FAC_DESC":"CONC CHNL 26'W 16.5'D 0:1 SS","FACTYPE":3}},{"type":"Feature","geometry":{"type":"LineString","coordinates":[[662868.216434541,3995207.111313299],[662891.1039182724,3995234.090298542],[662915.2209826998,3995245.120219908],[662972.4065250545,3995246.1637862846]]},"properties":{"FACNAME":"TROPICANA WASH","W_FT":10,"D_H_FT":6,"FAC_DESC":"10' X 6' RCB","FACTYPE":27}},{"type":"Feature","geometry":{"type":"LineString","coordinates":[[662000.6003222412,3996028.4734591297],[662034.8428713889,3996031.01916155]]},"properties":{"FACNAME":"TROPICANA WASH - NORTH BRANCH","W_FT":0,"D_H_FT":5,"FAC_DESC":"60\" CMP (REPLACE W/ TRNB0529)","FACTYPE":26}},{"type":"Feature","geometry":{"type":"LineString","coordinates":[[663202.2932180219,3998128.9672035766],[663241.9832644094,3998150.884250216]]},"properties":{"FACNAME":"FLAMINGO WASH","W_FT":12,"D_H_FT":10,"FAC_DESC":"4: 12' X 10' RCBC @ FLAMINGO/INDUSTRIAL CONNECTOR","FACTYPE":19}},{"type":"Feature","geometry":{"type":"LineString","coordinates":[[661398.0839512534,3994586.1687708786],[661441.0253377183,3994547.9458007636],[661502.3300234943,3994497.713522137],[661530.2888541811,3994481.890749082],[661558.5365675743,3994473.967177821],[661587.8027240564,3994467.6210179925],[661618.5634477105,3994465.985161055],[661701.9532718854,3994463.552753762],[661782.0761990123,3994462.146480032]]},"properties":{"FACNAME":"FLAMINGO - TROPICANA DIVERSION CHANNEL","W_FT":26,"D_H_FT":19.5,"FAC_DESC":"CONC CHNL 26'W 19.5'D 0:1 SS","FACTYPE":3}},{"type":"Feature","geometry":{"type":"LineString","coordinates":[[664727.6856343932,3995459.6028191806],[664719.602180864,3995872.0610124827]]},"properties":{"FACNAME":"TROPICANA WASH - MCCARRAN AIRPORT","W_FT":12,"D_H_FT":5,"FAC_DESC":"CONC CHNL 12'W 5'D 1.5:1 SS (REPLACE W/ TRMC0196)","FACTYPE":3}},{"type":"Feature","geometry":{"type":"LineString","coordinates":[[662934.5202668114,3996333.6642290964],[662966.6016223051,3996344.3863456864]]},"properties":{"FACNAME":"TROPICANA WASH - NORTH BRANCH","W_FT":9,"D_H_FT":5,"FAC_DESC":"3: 9' X 5' RCB","FACTYPE":27}},{"type":"Feature","geometry":{"type":"LineString","coordinates":[[667546.3823166213,3998602.0073951455],[667577.6888231463,3998601.5439130273]]},"properties":{"FACNAME":"FLAMINGO WASH","W_FT":47,"D_H_FT":14.5,"FAC_DESC":"TRANSITION CONC CHNL 40-54'W 13.5-15.6'D 0:1 SS","FACTYPE":41}},{"type":"Feature","geometry":{"type":"LineString","coordinates":[[663370.8732750897,3998308.824169459],[663397.0074554833,3998300.4850309216]]},"properties":{"FACNAME":"FLAMINGO WASH","W_FT":84,"D_H_FT":5.5,"FAC_DESC":"7 SPAN BRIDGE 84'W 5.5'D @ UPRR","FACTYPE":24}},{"type":"Feature","geometry":{"type":"LineString","coordinates":[[665219.3461054246,3998521.752241847],[665246.7744051301,3998521.267619904]]},"properties":{"FACNAME":"FLAMINGO WASH","W_FT":11,"D_H_FT":7,"FAC_DESC":"4: 11' X 7' RCB","FACTYPE":27}},{"type":"Feature","geometry":{"type":"LineString","coordinates":[[663651.8954201266,3996466.473812119],[663659.7637989825,3996466.6499849507],[663672.837956555,3996466.9392257836],[663680.2640553382,3996467.1035526567],[663686.5497860264,3996467.242559967],[663692.8045337534,3996466.247779393],[663696.8783152209,3996464.285603093],[663699.141683941,3996462.0211105132],[663705.319732128,3996455.089297539],[663707.7664349051,3996453.6749785636]]},"properties":{"FACNAME":"TROPICANA WASH - NORTH BRANCH","W_FT":15,"D_H_FT":4,"FAC_DESC":"2: 15' X 4' RCBC @ INDUSTRIAL","FACTYPE":19}},{"type":"Feature","geometry":{"type":"LineString","coordinates":[[662724.0432618676,3995050.0328886923],[662732.8682030519,3995064.462531723],[662742.9858085711,3995078.808895848],[662755.3100945386,3995096.7372257086],[662770.2044289887,3995113.2138243592],[662782.8374173082,3995123.277330409],[662798.9653649505,3995137.6966601433],[662816.5996379474,3995153.7808297905],[662843.2154581628,3995176.435209477],[662864.17965177,3995200.5560369743],[662868.216434541,3995207.111313299]]},"properties":{"FACNAME":"TROPICANA WASH","W_FT":10,"D_H_FT":6,"FAC_DESC":"10' X 6' RCB","FACTYPE":27}},{"type":"Feature","geometry":{"type":"LineString","coordinates":[[662043.7498525139,3997849.130218097],[662491.2784511773,3997862.410556061],[662495.3987935801,3997729.4769108584],[662495.5224406108,3997725.48844794]]},"properties":{"FACNAME":"FLAMINGO WASH - ROCHELLE","W_FT":0,"D_H_FT":5,"FAC_DESC":"60\" CMP","FACTYPE":23}},{"type":"Feature","geometry":{"type":"LineString","coordinates":[[665277.1688684322,3997384.2979678214],[665307.7013276466,3997364.5620729695]]},"properties":{"FACNAME":"TROPICANA WASH","W_FT":21,"D_H_FT":7,"FAC_DESC":"21' X 7' RCB","FACTYPE":27}},{"type":"Feature","geometry":{"type":"LineString","coordinates":[[660936.234926905,3995000.6913392083],[660968.728591339,3994964.3249008292]]},"properties":{"FACNAME":"FLAMINGO - TROPICANA DIVERSION CHANNEL","W_FT":26,"D_H_FT":16.5,"FAC_DESC":"26' X 16.5' RCBC @ RUSSELL","FACTYPE":19}},{"type":"Feature","geometry":{"type":"LineString","coordinates":[[666816.8323189177,3998467.0166896707],[666839.7624441767,3998471.2672045534],[666846.8397221935,3998472.553040358],[666863.9856190429,3998473.234771732]]},"properties":{"FACNAME":"FLAMINGO WASH","W_FT":10,"D_H_FT":7,"FAC_DESC":"3: 10' X 7' RCBC @ SWENSON","FACTYPE":19}},{"type":"Feature","geometry":{"type":"LineString","coordinates":[[661355.4684240165,4002857.851462247],[661359.1098389429,4002859.4823800325],[661365.613800772,4002861.7148344093],[661372.294189271,4002863.3505956084],[661379.0953282076,4002864.3807501914],[661385.9614551825,4002864.788582573],[661455.1633674516,4002865.798447714],[661457.8181121909,4002865.953101632],[661460.4494795308,4002866.3390406985],[661463.0375269058,4002866.952173469],[661465.5584165119,4002867.78805162],[661468.0002079082,4002868.8425004454],[661470.3430767204,4002870.1033293093],[661472.5631851357,4002871.566089876],[661474.6486663655,4002873.2147071785],[661476.5798405551,4002875.0407930976],[661478.3487988943,4002877.024329971],[661479.9358600695,4002879.157029671],[661481.3331568957,4002881.422875588],[661482.5250426072,4002883.797536641],[661483.5077897725,4002886.2691571005],[661484.2697526953,4002888.8133642604],[661484.8071054093,4002891.418200934],[661485.1161970533,4002894.059711117],[661485.193221322,4002896.7177369785],[661484.5286753017,4002942.255813611],[661484.6057977013,4002944.9139409247],[661484.9148487365,4002947.551350109],[661485.4521995123,4002950.1562868725],[661486.2141035601,4002952.7044938006],[661487.1928520548,4002955.1759561403],[661488.3888368323,4002957.550677343],[661489.7821918982,4002959.812465688],[661491.369152588,4002961.945164418],[661493.1381506276,4002963.932802914],[661495.0732823884,4002965.754946798],[661497.1587632713,4002967.4035648266],[661499.3788714254,4002968.8663262],[661501.7178419123,4002970.126999023],[661504.1596332431,4002971.181448754],[661506.6845225019,4002972.017386205],[661509.268570442,4002972.630461553],[661511.8999366148,4002973.01650156],[661514.554583238,4002973.171054948],[661772.3602024524,4002976.933308076],[661776.2084749112,4002977.1572865946],[661780.0239531072,4002977.71642498],[661783.7747000093,4002978.6061567087],[661787.4328321832,4002979.8182739783],[661790.9744716396,4002981.3442274034],[661794.3677353383,4002983.1757508167],[661797.5891189,4002985.2923989114],[661800.6107418094,4002987.6857639034],[661803.4168543797,4002990.3317132187],[661805.9798511897,4002993.2098417063],[661808.2800661924,4002996.303960545],[661810.3018693621,4002999.58173796],[661812.0334938806,4003003.027100401],[661813.4555502603,4003006.611761697],[661814.5603047903,4003010.3037053104],[661815.3402099023,4003014.0787183326],[661815.7877720315,4003017.9088882008],[661815.899359978,4003021.7620582352],[661815.6955607634,4003035.72708549],[661815.8312676486,4003040.387800058],[661816.3750611783,4003045.0183659415],[661817.3192631057,4003049.58296701],[661818.6604422292,4003054.049449523],[661820.3832239799,4003058.3816850195],[661822.4799761134,4003062.5475584487],[661824.9352255381,4003066.510839892],[661827.7214237669,4003070.2472245763],[661830.8269791121,4003073.728640145],[661834.2245196667,4003076.9186830143],[661837.8861247645,4003079.8048443273],[661840.3193648111,4003081.3974329485],[661841.7884024314,4003082.3589795134],[661845.8994922275,4003084.5644217506],[661850.1837435418,4003086.3969480293],[661854.6134189467,4003087.852053076],[661859.1526985513,4003088.917112742],[661863.7697160733,4003089.575860148],[661868.4247199661,4003089.8315155897],[661883.6567829117,4003090.0019023228],[661890.9702947147,4003090.696001262]]},"properties":{"FACNAME":"OAKEY MEADOWS STORMDRAIN","W_FT":12,"D_H_FT":8,"FAC_DESC":"12' X 8' RCB","FACTYPE":27}},{"type":"Feature","geometry":{"type":"LineString","coordinates":[[663355.6242186559,3993956.2840901613],[663355.4180802046,3993977.6194311003]]},"properties":{"FACNAME":"WAGON TRAIL CHANNEL","W_FT":20,"D_H_FT":5,"FAC_DESC":"20' X 5' RCAC @ BIRCHER DR","FACTYPE":43}},{"type":"Feature","geometry":{"type":"LineString","coordinates":[[661203.88255623,4002277.1866722554],[661204.6845917291,4002296.9717034404],[661206.3224761116,4002316.704923642],[661208.7926321297,4002336.3504767874],[661214.1339105663,4002372.5349838277],[661216.5345654681,4002393.3861598372],[661217.5911888038,4002414.3455390064],[661217.3090028015,4002435.3293878324],[661210.6408871352,4002582.0755426507],[661210.5977602733,4002605.01659963],[661212.5575625352,4002627.8750713095],[661216.502862511,4002650.474783916],[661222.4042702504,4002672.643489613],[661230.2200774574,4002694.2169617037]]},"properties":{"FACNAME":"OAKEY MEADOWS STORMDRAIN","W_FT":12,"D_H_FT":9,"FAC_DESC":"12' X 9' RCB","FACTYPE":27}},{"type":"Feature","geometry":{"type":"LineString","coordinates":[[666819.5762863986,3998155.5366291385],[666843.8023577349,3998157.5319179827],[666855.1852590379,3998159.7740319623],[666858.1402599739,3998160.3560811304],[666869.4624624816,3998161.9527263897],[666880.6023469429,3998164.530042091],[666891.4751870462,3998168.0684907883],[666901.9983656368,3998172.5410647807],[666912.0915673907,3998177.9137889976],[666921.6781787218,3998184.145741404],[666930.6850805074,3998191.189550045],[666939.0439465257,3998198.991511978],[666946.6908318299,3998207.4923873846],[666953.5678740668,3998216.6273243465],[666957.6352260608,3998222.9305359633],[666965.9304769533,3998235.3773790733],[666967.0196953521,3998237.0117698037]]},"properties":{"FACNAME":"TROPICANA WASH","W_FT":14,"D_H_FT":5,"FAC_DESC":"5: 14' X 5' RCB","FACTYPE":27}},{"type":"Feature","geometry":{"type":"LineString","coordinates":[[668049.9112493685,3998997.8666097247],[668045.4921057164,3998901.0380992345]]},"properties":{"FACNAME":"FLAMINGO WASH - ALGONQUIN","W_FT":0,"D_H_FT":5.5,"FAC_DESC":"66\" RCP","FACTYPE":26}},{"type":"Feature","geometry":{"type":"LineString","coordinates":[[665634.8850216146,4002788.2116006636],[665608.3589503495,4002788.0891434886],[665569.29527176,4002787.6051044706]]},"properties":{"FACNAME":"FREEWAY CHANNEL BYPASS FACILITY RR BRANCH","W_FT":5,"D_H_FT":5,"FAC_DESC":"CONC CHNL 5'W 5'D 0:1 SS","FACTYPE":3}},{"type":"Feature","geometry":{"type":"LineString","coordinates":[[662891.4430416021,3998281.0104374927],[663255.8722261401,3998287.8761068843]]},"properties":{"FACNAME":"FLAMINGO - VALLEY VIEW","W_FT":0,"D_H_FT":4.5,"FAC_DESC":"54\" & 60\" RCP","FACTYPE":26}},{"type":"Feature","geometry":{"type":"LineString","coordinates":[[663707.7664349051,3996453.6749785636],[663709.8917971815,3996451.032329396],[663713.1277554046,3996447.1638152446],[663716.9070423467,3996443.496842184],[663724.5525109128,3996440.8719290732],[663731.8604657961,3996441.1001415593],[663739.0224729418,3996443.03243274]]},"properties":{"FACNAME":"TROPICANA WASH - NORTH BRANCH","W_FT":17,"D_H_FT":5,"FAC_DESC":"CONC CHNL 17'W 5'D 0:1 SS","FACTYPE":3}},{"type":"Feature","geometry":{"type":"LineString","coordinates":[[662566.0840562062,3994888.2595473044],[662580.015641422,3994889.903170408],[662614.4405954941,3994890.4913823046],[662642.2506633266,3994896.9298244226],[662658.2804791855,3994909.6070029708],[662671.7042005969,3994919.9836521335],[662685.673145621,3994944.697423238],[662699.9704252137,3994972.809577386],[662711.7440963208,3995000.7508536214],[662726.3673906103,3995024.4776474144],[662724.0432618676,3995050.0328886923]]},"properties":{"FACNAME":"TROPICANA WASH","W_FT":10,"D_H_FT":6,"FAC_DESC":"10' X 6' RCB","FACTYPE":27}},{"type":"Feature","geometry":{"type":"LineString","coordinates":[[662034.8428713889,3996031.01916155],[662099.7035636541,3996032.109099306]]},"properties":{"FACNAME":"TROPICANA WASH - NORTH BRANCH","W_FT":7,"D_H_FT":5,"FAC_DESC":"7' X 5' RCB (REPLACE W/ TRNB0413)","FACTYPE":27}},{"type":"Feature","geometry":{"type":"LineString","coordinates":[[660895.1595433259,3998207.610119802],[661275.6370093606,3998242.989734039]]},"properties":{"FACNAME":"FLAMINGO WASH - FLAMINGO STORM DRAIN","W_FT":0,"D_H_FT":3.75,"FAC_DESC":"45\" RCP","FACTYPE":26}},{"type":"Feature","geometry":{"type":"LineString","coordinates":[[662344.9026668352,4002707.9855952817],[662336.0665780175,4003109.1898207874]]},"properties":{"FACNAME":"OAKEY MEADOWS STORMDRAIN","W_FT":7,"D_H_FT":6,"FAC_DESC":"7' X 6' RCB","FACTYPE":27}},{"type":"Feature","geometry":{"type":"LineString","coordinates":[[667583.0626567773,3996749.903027704],[667710.6678882099,3996752.792869785]]},"properties":{"FACNAME":"VAN BUSKIRK - TOMPKINS AVENUE","W_FT":7,"D_H_FT":4,"FAC_DESC":"7' X 4' RCB","FACTYPE":27}}],"metadata":{"title":"Las Vegas Valley Regional Flood Control District master-plan channels in the Strip/downtown region","source":"Clark County Regional Flood Control District, FacilitiesComplete MapServer, Channels layer","sourceUrl":"https://breccia.ccrfcd.org/ArcGIS/rest/services/FacilitiesComplete/MapServer/0","retrieved":"2026-10-03","spatialReference":"EPSG:32611","extentEPSG32611":[660000,3994000,668000,4003000],"important":"Channel alignment follows the published GIS polylines. Public map records do not identify human-accessible entrances or provide surveyed tunnel elevations. In-game shafts, walkable dimensions and depths are fictional; flood conveyances are not depicted as public pedestrian routes."}}
